{"type":"FeatureCollection","features":[{"type":"Feature","id":2207,"geometry":{"type":"Polygon","coordinates":[[[-75.9092,1.8542],[-75.9143,1.8591],[-75.918,1.8538],[-75.9356,1.8453],[-75.9488,1.8509],[-75.9509,1.8568],[-75.9614,1.8554],[-75.963,1.8481],[-75.9681,1.8442],[-75.9783,1.8432],[-75.9817,1.8381],[-75.9804,1.8304],[-75.9842,1.82],[-75.9934,1.8172],[-75.994,1.8046],[-76.0139,1.7838],[-76.008,1.7722],[-76.0088,1.7651],[-76.0235,1.7514],[-76.0264,1.7433],[-76.0422,1.7433],[-76.0544,1.7354],[-76.0578,1.738],[-76.0644,1.7279],[-76.0993,1.7164],[-76.1084,1.7028],[-76.1082,1.6979],[-76.116,1.6928],[-76.1113,1.6797],[-76.1029,1.6769],[-76.1079,1.6699],[-76.1108,1.6546],[-76.1253,1.6505],[-76.1127,1.6489],[-76.101,1.6412],[-76.1192,1.6308],[-76.125,1.6179],[-76.1388,1.6114],[-76.1426,1.6001],[-76.1529,1.6],[-76.1697,1.588],[-76.153,1.5831],[-76.1451,1.5753],[-76.1373,1.5747],[-76.1244,1.5661],[-76.1198,1.5521],[-76.0903,1.5682],[-76.0874,1.5772],[-76.081,1.5775],[-76.0746,1.5848],[-76.0651,1.5857],[-76.0556,1.5803],[-76.0464,1.5843],[-76.0344,1.5828],[-76.0235,1.5908],[-76.006,1.6148],[-75.9941,1.6148],[-75.9808,1.6244],[-75.9775,1.6424],[-75.9819,1.6527],[-75.98,1.6576],[-75.9725,1.6611],[-75.9628,1.6592],[-75.9527,1.6638],[-75.9519,1.6703],[-75.9427,1.6754],[-75.9337,1.693],[-75.9235,1.6963],[-75.9207,1.7042],[-75.9122,1.712],[-75.9,1.7171],[-75.8833,1.7133],[-75.8733,1.7142],[-75.8542,1.7255],[-75.8473,1.7222],[-75.8415,1.7243],[-75.8373,1.7402],[-75.8383,1.7475],[-75.844,1.7528],[-75.849,1.7775],[-75.8565,1.7873],[-75.8574,1.8029],[-75.8733,1.8219],[-75.8709,1.835],[-75.8826,1.8516],[-75.9092,1.8542]]]},"properties":{"OBJECTID":2207,"DPTO_CCDGO":"41","MPIO_CCDGO":"006","MPIO_CDPMP":"41006","MPIO_TIPO":"MUNICIPIO","MPIO_NAREA":521.80771888000004,"MPIO_NANO":2024,"DPTO_CNMBRE":"HUILA","MPIO_CNMBRE":"ACEVEDO","MPIO_CRSLCION":"1898"}},{"type":"Feature","id":2208,"geometry":{"type":"Polygon","coordinates":[[[-75.7778,2.3635],[-75.7866,2.3615],[-75.7852,2.3476],[-75.7879,2.3383],[-75.7817,2.3263],[-75.7985,2.3127],[-75.7863,2.2977],[-75.7814,2.2843],[-75.7804,2.2741],[-75.7845,2.2661],[-75.7828,2.2445],[-75.7794,2.2352],[-75.7488,2.2395],[-75.7358,2.2366],[-75.7327,2.2313],[-75.7482,2.2237],[-75.7557,2.228],[-75.765,2.225],[-75.7899,2.2272],[-75.787,2.2196],[-75.773,2.2155],[-75.7649,2.2007],[-75.7394,2.1833],[-75.7296,2.1632],[-75.7227,2.1659],[-75.7051,2.1654],[-75.6995,2.1626],[-75.6921,2.17],[-75.6864,2.168],[-75.6829,2.172],[-75.6753,2.1726],[-75.6719,2.1813],[-75.666,2.1794],[-75.6637,2.1818],[-75.6603,2.1906],[-75.6626,2.1988],[-75.6694,2.1968],[-75.677,2.1998],[-75.6696,2.2099],[-75.6714,2.2157],[-75.6588,2.2154],[-75.6577,2.2216],[-75.6472,2.2268],[-75.6509,2.2476],[-75.6484,2.2572],[-75.6423,2.2634],[-75.6522,2.2671],[-75.6356,2.2853],[-75.6372,2.2875],[-75.6438,2.2852],[-75.6452,2.289],[-75.6421,2.2943],[-75.6507,2.3014],[-75.646,2.3132],[-75.6401,2.3152],[-75.6461,2.3266],[-75.6395,2.3312],[-75.64,2.3352],[-75.6466,2.3404],[-75.6519,2.3384],[-75.6617,2.3419],[-75.666,2.3557],[-75.6813,2.3464],[-75.6803,2.3303],[-75.6841,2.3254],[-75.6894,2.3335],[-75.6939,2.3306],[-75.6971,2.3333],[-75.7055,2.3452],[-75.7147,2.3504],[-75.7221,2.36],[-75.7317,2.3602],[-75.7349,2.3565],[-75.7459,2.3591],[-75.7482,2.3632],[-75.7509,2.361],[-75.7576,2.3633],[-75.7653,2.3569],[-75.7723,2.3631],[-75.7778,2.3635]]]},"properties":{"OBJECTID":2208,"DPTO_CCDGO":"41","MPIO_CCDGO":"013","MPIO_CDPMP":"41013","MPIO_TIPO":"MUNICIPIO","MPIO_NAREA":273.68705437,"MPIO_NANO":2024,"DPTO_CNMBRE":"HUILA","MPIO_CNMBRE":"AGRADO","MPIO_CRSLCION":"1837"}},{"type":"Feature","id":2209,"geometry":{"type":"Polygon","coordinates":[[[-75.3182,3.4163],[-75.3185,3.4195],[-75.3212,3.4182],[-75.3233,3.4119],[-75.3212,3.4087],[-75.3266,3.4037],[-75.3403,3.398],[-75.3415,3.4054],[-75.3514,3.4026],[-75.3562,3.4029],[-75.3569,3.4079],[-75.3603,3.4091],[-75.3665,3.4066],[-75.3712,3.4006],[-75.3705,3.3963],[-75.3737,3.3951],[-75.371,3.3879],[-75.3772,3.3819],[-75.3751,3.3751],[-75.3962,3.3774],[-75.4067,3.3694],[-75.415,3.3712],[-75.4261,3.3525],[-75.4406,3.3452],[-75.4449,3.3568],[-75.4629,3.3544],[-75.4788,3.3611],[-75.4865,3.346],[-75.4855,3.334],[-75.4904,3.3259],[-75.4985,3.3214],[-75.5111,3.3288],[-75.5251,3.3212],[-75.5276,3.3176],[-75.5226,3.3124],[-75.5219,3.3012],[-75.5307,3.2928],[-75.5303,3.2864],[-75.5425,3.276],[-75.5498,3.2571],[-75.5543,3.2561],[-75.5685,3.2418],[-75.5759,3.2284],[-75.5775,3.2214],[-75.5726,3.218],[-75.5715,3.2107],[-75.5759,3.2063],[-75.5725,3.2007],[-75.578,3.1942],[-75.5775,3.1857],[-75.585,3.1768],[-75.5822,3.1688],[-75.5885,3.1558],[-75.5848,3.1501],[-75.573,3.165],[-75.5627,3.202],[-75.5342,3.225],[-75.5303,3.2322],[-75.5263,3.2335],[-75.5189,3.2288],[-75.5177,3.2312],[-75.5032,3.2281],[-75.4984,3.2307],[-75.4863,3.2298],[-75.4782,3.2469],[-75.473,3.2499],[-75.4619,3.2409],[-75.4499,3.2499],[-75.4393,3.2423],[-75.419,3.2513],[-75.4056,3.2501],[-75.3996,3.2529],[-75.3985,3.2569],[-75.3906,3.2584],[-75.3923,3.2609],[-75.3867,3.263],[-75.387,3.2678],[-75.3789,3.2747],[-75.3718,3.2758],[-75.3693,3.2673],[-75.3653,3.2659],[-75.359,3.2813],[-75.355,3.284],[-75.3413,3.2785],[-75.3374,3.2717],[-75.3616,3.2448],[-75.3677,3.2337],[-75.3714,3.2349],[-75.3901,3.2029],[-75.413,3.1371],[-75.4034,3.1316],[-75.4094,3.1146],[-75.406,3.1116],[-75.405,3.1153],[-75.3978,3.1161],[-75.3971,3.1199],[-75.3752,3.1102],[-75.3704,3.1132],[-75.3642,3.1051],[-75.3655,3.0966],[-75.3611,3.0926],[-75.3527,3.099],[-75.3503,3.0966],[-75.3445,3.0981],[-75.3461,3.0891],[-75.3407,3.0908],[-75.3415,3.077],[-75.3388,3.0717],[-75.3155,3.0698],[-75.3125,3.0617],[-75.308,3.0597],[-75.3074,3.063],[-75.3051,3.0603],[-75.2995,3.0617],[-75.2948,3.0581],[-75.2922,3.0661],[-75.2832,3.0731],[-75.2785,3.1043],[-75.2718,3.1094],[-75.267,3.1072],[-75.2694,3.1131],[-75.2649,3.1378],[-75.2723,3.1487],[-75.2754,3.1614],[-75.2671,3.1679],[-75.2656,3.175],[-75.2564,3.1882],[-75.2294,3.2015],[-75.2319,3.2132],[-75.2309,3.2239],[-75.226,3.2246],[-75.224,3.2302],[-75.2248,3.2489],[-75.2269,3.2569],[-75.2327,3.2632],[-75.2324,3.2793],[-75.2394,3.2914],[-75.2391,3.3103],[-75.2253,3.3178],[-75.2206,3.3289],[-75.2038,3.3315],[-75.2063,3.3391],[-75.2166,3.3463],[-75.2161,3.3531],[-75.2021,3.3448],[-75.1889,3.367],[-75.1728,3.3783],[-75.1999,3.3846],[-75.2023,3.3966],[-75.2001,3.4091],[-75.2075,3.4102],[-75.2111,3.4077],[-75.2115,3.4124],[-75.2225,3.4122],[-75.2267,3.4159],[-75.2413,3.4043],[-75.2462,3.3945],[-75.2453,3.3819],[-75.2507,3.3751],[-75.2527,3.3657],[-75.2602,3.3723],[-75.2587,3.3763],[-75.2667,3.3787],[-75.2712,3.3838],[-75.2768,3.3826],[-75.2823,3.3887],[-75.2968,3.3958],[-75.3018,3.3995],[-75.3024,3.4044],[-75.3083,3.4039],[-75.3092,3.4122],[-75.3182,3.4163]]]},"properties":{"OBJECTID":2209,"DPTO_CCDGO":"41","MPIO_CCDGO":"016","MPIO_CDPMP":"41016","MPIO_TIPO":"MUNICIPIO","MPIO_NAREA":795.30817987,"MPIO_NANO":2024,"DPTO_CNMBRE":"HUILA","MPIO_CNMBRE":"AIPE","MPIO_CRSLCION":"1912"}},{"type":"Feature","id":2210,"geometry":{"type":"Polygon","coordinates":[[[-75.1541,2.7041],[-75.1527,2.7088],[-75.1582,2.7042],[-75.1647,2.706],[-75.172,2.7033],[-75.1706,2.6941],[-75.1741,2.6876],[-75.1716,2.6825],[-75.1743,2.6775],[-75.1829,2.6741],[-75.189,2.6667],[-75.2001,2.6629],[-75.2042,2.6519],[-75.2138,2.6506],[-75.2176,2.6431],[-75.2301,2.6341],[-75.2423,2.6309],[-75.2447,2.6221],[-75.2611,2.6174],[-75.265,2.6077],[-75.2816,2.6002],[-75.2871,2.5882],[-75.3001,2.5774],[-75.2981,2.569],[-75.316,2.5614],[-75.3255,2.5531],[-75.335,2.5548],[-75.3461,2.551],[-75.3451,2.5416],[-75.3495,2.5407],[-75.3534,2.5302],[-75.3596,2.5273],[-75.3621,2.5176],[-75.381,2.5071],[-75.3953,2.4813],[-75.4104,2.4686],[-75.4114,2.4617],[-75.4174,2.455],[-75.4289,2.4518],[-75.4296,2.4456],[-75.4339,2.4417],[-75.4315,2.4303],[-75.4389,2.4166],[-75.4451,2.3856],[-75.4379,2.373],[-75.4308,2.3684],[-75.4276,2.355],[-75.4033,2.3497],[-75.4003,2.3379],[-75.3944,2.3331],[-75.3863,2.3146],[-75.3764,2.319],[-75.3698,2.3266],[-75.3655,2.3264],[-75.3588,2.32],[-75.3481,2.3238],[-75.3296,2.3653],[-75.3164,2.3588],[-75.3101,2.3616],[-75.3017,2.3789],[-75.2944,2.3821],[-75.2898,2.3892],[-75.2863,2.3964],[-75.2871,2.4097],[-75.2795,2.4227],[-75.2761,2.4247],[-75.2705,2.4225],[-75.2595,2.4411],[-75.2506,2.4445],[-75.2533,2.453],[-75.2311,2.4809],[-75.2266,2.4956],[-75.2271,2.5117],[-75.2057,2.5085],[-75.1945,2.5119],[-75.1844,2.5064],[-75.1806,2.5077],[-75.1726,2.5238],[-75.1814,2.5311],[-75.1705,2.5507],[-75.1576,2.5636],[-75.1541,2.5812],[-75.1327,2.5952],[-75.134,2.6049],[-75.1495,2.6207],[-75.1502,2.6336],[-75.1556,2.6459],[-75.1535,2.6569],[-75.1403,2.6688],[-75.1332,2.6936],[-75.1541,2.7041]]]},"properties":{"OBJECTID":2210,"DPTO_CCDGO":"41","MPIO_CCDGO":"020","MPIO_CDPMP":"41020","MPIO_TIPO":"MUNICIPIO","MPIO_NAREA":589.42711258999998,"MPIO_NANO":2024,"DPTO_CNMBRE":"HUILA","MPIO_CNMBRE":"ALGECIRAS","MPIO_CRSLCION":"Ordenanza 41 del 7 de Abril de 1924"}},{"type":"Feature","id":2211,"geometry":{"type":"Polygon","coordinates":[[[-75.6877,2.1652],[-75.6864,2.168],[-75.6921,2.17],[-75.6995,2.1626],[-75.7051,2.1654],[-75.7227,2.1659],[-75.7332,2.1617],[-75.7427,2.1457],[-75.7405,2.1285],[-75.7481,2.1135],[-75.7673,2.1067],[-75.7764,2.1207],[-75.7934,2.1212],[-75.7996,2.1167],[-75.8002,2.1058],[-75.8119,2.1017],[-75.8174,2.1036],[-75.8188,2.0967],[-75.8324,2.0935],[-75.84,2.0864],[-75.8458,2.0754],[-75.8444,2.0695],[-75.8491,2.0691],[-75.8473,2.0588],[-75.8599,2.0469],[-75.8556,2.0458],[-75.8477,2.0327],[-75.8394,2.0327],[-75.8335,2.0251],[-75.8281,2.0157],[-75.8286,1.9994],[-75.823,1.9997],[-75.8154,1.9934],[-75.8104,1.9947],[-75.7976,1.9887],[-75.789,1.9916],[-75.7906,1.997],[-75.7876,1.9962],[-75.7886,2.0007],[-75.7801,2.0122],[-75.7751,2.0283],[-75.7723,2.0299],[-75.767,2.0228],[-75.7488,2.0334],[-75.7431,2.0436],[-75.7453,2.0464],[-75.7402,2.0472],[-75.7378,2.0522],[-75.7338,2.0518],[-75.7331,2.0585],[-75.7213,2.0656],[-75.7102,2.0778],[-75.7055,2.0931],[-75.7071,2.0962],[-75.6985,2.1132],[-75.7001,2.1183],[-75.6884,2.1207],[-75.6837,2.1269],[-75.679,2.1261],[-75.6685,2.1415],[-75.6872,2.1575],[-75.6854,2.1643],[-75.6877,2.1652]]]},"properties":{"OBJECTID":2211,"DPTO_CCDGO":"41","MPIO_CCDGO":"026","MPIO_CDPMP":"41026","MPIO_TIPO":"MUNICIPIO","MPIO_NAREA":180.95237477000001,"MPIO_NANO":2024,"DPTO_CNMBRE":"HUILA","MPIO_CNMBRE":"ALTAMIRA","MPIO_CRSLCION":"1855"}},{"type":"Feature","id":2212,"geometry":{"type":"Polygon","coordinates":[[[-74.9126,3.2899],[-74.9176,3.2903],[-74.9281,3.2829],[-74.934,3.286],[-74.9482,3.2801],[-74.9529,3.2817],[-74.9591,3.2771],[-74.9642,3.2824],[-74.9789,3.2854],[-74.9901,3.2832],[-74.9956,3.277],[-75.0009,3.2763],[-75.0079,3.2804],[-75.0176,3.2765],[-75.0332,3.2497],[-75.0496,3.2304],[-75.0511,3.2213],[-75.0427,3.2006],[-75.0476,3.1982],[-75.0558,3.2026],[-75.0771,3.1897],[-75.0837,3.1909],[-75.0931,3.1836],[-75.0961,3.1881],[-75.0993,3.1865],[-75.1004,3.1912],[-75.1081,3.1927],[-75.1105,3.1892],[-75.1167,3.1948],[-75.1236,3.1934],[-75.1249,3.1992],[-75.128,3.1971],[-75.1342,3.2003],[-75.1459,3.1701],[-75.1573,3.1511],[-75.1569,3.1459],[-75.1636,3.1376],[-75.1632,3.1326],[-75.1593,3.1299],[-75.161,3.1238],[-75.1539,3.1218],[-75.153,3.1175],[-75.1486,3.1176],[-75.1502,3.1136],[-75.1385,3.1084],[-75.1365,3.1034],[-75.1266,3.0997],[-75.1268,3.0956],[-75.1144,3.0918],[-75.1111,3.0757],[-75.1001,3.0685],[-75.0952,3.0801],[-75.0837,3.0709],[-75.0796,3.0775],[-75.0744,3.0761],[-75.0682,3.0926],[-75.062,3.0981],[-75.0364,3.0809],[-75.0337,3.0738],[-75.0271,3.0731],[-75.021,3.0776],[-75.0164,3.0737],[-74.9888,3.0696],[-74.9826,3.0662],[-74.9779,3.0555],[-74.9704,3.0537],[-74.9671,3.0557],[-74.9659,3.0512],[-74.9584,3.0526],[-74.9567,3.048],[-74.9426,3.0464],[-74.933,3.0356],[-74.9365,3.0322],[-74.9349,3.022],[-74.9399,3.0159],[-74.9365,3.0052],[-74.941,2.9783],[-74.9265,2.9741],[-74.9106,2.9573],[-74.9044,2.9582],[-74.8942,2.9669],[-74.8857,2.9652],[-74.8828,2.9716],[-74.8742,2.9695],[-74.869,2.9736],[-74.8659,2.9811],[-74.8681,2.985],[-74.8629,2.9936],[-74.8496,2.9947],[-74.8259,3.0377],[-74.8204,3.0399],[-74.8201,3.0477],[-74.816,3.053],[-74.7918,3.0562],[-74.7875,3.0614],[-74.7903,3.0737],[-74.766,3.0969],[-74.7738,3.0996],[-74.7837,3.0982],[-74.7898,3.1047],[-74.7994,3.1056],[-74.8127,3.1188],[-74.8159,3.131],[-74.8349,3.1297],[-74.8411,3.1398],[-74.8482,3.143],[-74.8555,3.1573],[-74.8491,3.1647],[-74.845,3.1834],[-74.852,3.187],[-74.8627,3.2214],[-74.8974,3.2531],[-74.9023,3.2632],[-74.9016,3.2773],[-74.9041,3.2803],[-74.9069,3.2789],[-74.9092,3.2905],[-74.9126,3.2899]]]},"properties":{"OBJECTID":2212,"DPTO_CCDGO":"41","MPIO_CCDGO":"078","MPIO_CDPMP":"41078","MPIO_TIPO":"MUNICIPIO","MPIO_NAREA":785.47926633999998,"MPIO_NANO":2024,"DPTO_CNMBRE":"HUILA","MPIO_CNMBRE":"BARAYA","MPIO_CRSLCION":"1844"}},{"type":"Feature","id":2213,"geometry":{"type":"Polygon","coordinates":[[[-75.3334,2.767],[-75.3344,2.7803],[-75.3522,2.7668],[-75.3628,2.7679],[-75.3678,2.7554],[-75.378,2.7488],[-75.3786,2.7384],[-75.3929,2.7226],[-75.4053,2.7437],[-75.4124,2.7347],[-75.4229,2.7361],[-75.4194,2.7267],[-75.4236,2.7274],[-75.4263,2.7205],[-75.4372,2.7173],[-75.4306,2.7094],[-75.4423,2.6886],[-75.4359,2.682],[-75.4357,2.6706],[-75.4392,2.6638],[-75.4335,2.6617],[-75.4352,2.6553],[-75.4313,2.6502],[-75.4382,2.6374],[-75.4377,2.6253],[-75.3945,2.559],[-75.3854,2.55],[-75.3856,2.517],[-75.3788,2.5094],[-75.3621,2.5176],[-75.3596,2.5273],[-75.3534,2.5302],[-75.3495,2.5407],[-75.3451,2.5416],[-75.3461,2.551],[-75.335,2.5548],[-75.3255,2.5531],[-75.316,2.5614],[-75.2981,2.569],[-75.3001,2.5774],[-75.2871,2.5882],[-75.2816,2.6002],[-75.265,2.6077],[-75.2611,2.6174],[-75.2447,2.6221],[-75.2423,2.6309],[-75.2301,2.6341],[-75.2176,2.6431],[-75.2138,2.6506],[-75.2042,2.6519],[-75.2011,2.662],[-75.1881,2.6672],[-75.1716,2.6825],[-75.1741,2.6876],[-75.1706,2.6941],[-75.172,2.7033],[-75.1771,2.697],[-75.182,2.6987],[-75.1907,2.6941],[-75.214,2.6909],[-75.2104,2.703],[-75.2287,2.7205],[-75.245,2.7305],[-75.256,2.7466],[-75.2826,2.753],[-75.2995,2.7472],[-75.3089,2.7485],[-75.3195,2.7405],[-75.3249,2.7481],[-75.3232,2.7517],[-75.3277,2.7614],[-75.3334,2.767]]]},"properties":{"OBJECTID":2213,"DPTO_CCDGO":"41","MPIO_CCDGO":"132","MPIO_CDPMP":"41132","MPIO_TIPO":"MUNICIPIO","MPIO_NAREA":462.60528607999998,"MPIO_NANO":2024,"DPTO_CNMBRE":"HUILA","MPIO_CNMBRE":"CAMPOALEGRE","MPIO_CRSLCION":"1912"}},{"type":"Feature","id":2214,"geometry":{"type":"Polygon","coordinates":[[[-74.5185,3.836],[-74.5347,3.8432],[-74.5311,3.838],[-74.5368,3.8273],[-74.5345,3.821],[-74.5449,3.8072],[-74.5464,3.7932],[-74.5531,3.7846],[-74.5576,3.7671],[-74.5611,3.7669],[-74.5669,3.7568],[-74.5852,3.7407],[-74.5908,3.7295],[-74.598,3.7224],[-74.6065,3.7194],[-74.6249,3.6987],[-74.6473,3.6831],[-74.6581,3.6816],[-74.664,3.673],[-74.6754,3.6717],[-74.6909,3.645],[-74.6974,3.6416],[-74.701,3.6157],[-74.7122,3.6107],[-74.7171,3.615],[-74.7202,3.6141],[-74.7296,3.5975],[-74.7384,3.5908],[-74.7395,3.5818],[-74.7352,3.5793],[-74.7339,3.5664],[-74.7266,3.562],[-74.7286,3.5516],[-74.7476,3.5277],[-74.7559,3.5319],[-74.7692,3.5301],[-74.7807,3.5097],[-74.7791,3.5069],[-74.7829,3.4929],[-74.7808,3.479],[-74.7717,3.464],[-74.766,3.4614],[-74.7652,3.4563],[-74.7617,3.4546],[-74.7645,3.4409],[-74.7756,3.4363],[-74.7849,3.4251],[-74.8054,3.4157],[-74.8163,3.4064],[-74.8181,3.4021],[-74.8153,3.3935],[-74.8257,3.3889],[-74.8311,3.3696],[-74.8487,3.3517],[-74.8485,3.3408],[-74.8669,3.3277],[-74.8755,3.3261],[-74.8749,3.3212],[-74.8794,3.3188],[-74.8799,3.3149],[-74.9092,3.2905],[-74.9071,3.2792],[-74.9041,3.2803],[-74.9016,3.2773],[-74.9001,3.2575],[-74.8905,3.2444],[-74.8766,3.2368],[-74.8767,3.2337],[-74.8627,3.2214],[-74.852,3.187],[-74.845,3.1834],[-74.8491,3.1647],[-74.8555,3.1573],[-74.8522,3.1487],[-74.8411,3.1398],[-74.8349,3.1297],[-74.8159,3.131],[-74.8132,3.1198],[-74.8074,3.1118],[-74.7994,3.1056],[-74.7895,3.1045],[-74.7837,3.0982],[-74.7738,3.0996],[-74.766,3.0969],[-74.7643,3.1051],[-74.7509,3.1082],[-74.7489,3.1225],[-74.7272,3.138],[-74.7227,3.1576],[-74.713,3.17],[-74.6966,3.1731],[-74.6733,3.1863],[-74.6669,3.2073],[-74.6687,3.2178],[-74.6664,3.2301],[-74.6578,3.2403],[-74.6566,3.2476],[-74.6367,3.2728],[-74.6355,3.2785],[-74.6163,3.2878],[-74.6261,3.2998],[-74.6166,3.321],[-74.6179,3.3305],[-74.6271,3.3452],[-74.6272,3.3509],[-74.6398,3.3684],[-74.6221,3.3783],[-74.6255,3.3853],[-74.624,3.393],[-74.6091,3.4061],[-74.6057,3.4141],[-74.6136,3.4192],[-74.6175,3.4294],[-74.6119,3.446],[-74.6155,3.4595],[-74.6305,3.4685],[-74.6305,3.4713],[-74.6071,3.5017],[-74.6031,3.514],[-74.5929,3.5211],[-74.5907,3.5273],[-74.5843,3.5298],[-74.5808,3.5236],[-74.5719,3.5253],[-74.5665,3.5224],[-74.5493,3.5479],[-74.5374,3.5598],[-74.5241,3.5797],[-74.5279,3.5839],[-74.5247,3.5952],[-74.5142,3.6009],[-74.5126,3.6213],[-74.5029,3.6463],[-74.4916,3.6542],[-74.4824,3.6675],[-74.4745,3.6632],[-74.4645,3.6642],[-74.4519,3.6914],[-74.4438,3.6931],[-74.4384,3.6988],[-74.439,3.7073],[-74.4245,3.7084],[-74.4184,3.7219],[-74.4133,3.7238],[-74.4178,3.742],[-74.4247,3.7414],[-74.4421,3.7302],[-74.4527,3.7305],[-74.4634,3.7409],[-74.4578,3.754],[-74.4582,3.7726],[-74.4504,3.7946],[-74.4453,3.8008],[-74.4502,3.819],[-74.4625,3.8192],[-74.477,3.8243],[-74.4835,3.8185],[-74.4902,3.8176],[-74.5061,3.8238],[-74.5098,3.8328],[-74.5185,3.836]]]},"properties":{"OBJECTID":2214,"DPTO_CCDGO":"41","MPIO_CCDGO":"206","MPIO_CDPMP":"41206","MPIO_TIPO":"MUNICIPIO","MPIO_NAREA":1583.6230539799999,"MPIO_NANO":2024,"DPTO_CNMBRE":"HUILA","MPIO_CNMBRE":"COLOMBIA","MPIO_CRSLCION":"1886"}},{"type":"Feature","id":2215,"geometry":{"type":"Polygon","coordinates":[[[-75.941,2.0481],[-75.9519,2.0504],[-75.9587,2.0483],[-75.966,2.0297],[-75.9703,2.03],[-75.9792,2.0232],[-75.9856,2.0122],[-75.9957,2.0104],[-75.9979,2.0015],[-76.0059,2.0011],[-76.0067,1.9897],[-76.0159,1.9864],[-76.0161,1.9818],[-76.0261,1.9764],[-76.0184,1.96],[-76.0109,1.9568],[-75.9878,1.9601],[-75.9871,1.9547],[-75.9707,1.965],[-75.9693,1.9797],[-75.9602,1.9891],[-75.9526,1.9867],[-75.9384,1.9971],[-75.9297,1.9919],[-75.9284,1.9876],[-75.9212,1.9883],[-75.9184,1.994],[-75.9126,1.9968],[-75.9131,2.0004],[-75.89,2.0078],[-75.8886,2.0152],[-75.8843,2.0158],[-75.8751,2.0279],[-75.8687,2.0303],[-75.8625,2.0433],[-75.8752,2.0489],[-75.8761,2.0446],[-75.8841,2.043],[-75.8819,2.0389],[-75.8874,2.0354],[-75.8944,2.0425],[-75.8993,2.0336],[-75.9093,2.0363],[-75.9191,2.0335],[-75.9346,2.0384],[-75.941,2.0481]]]},"properties":{"OBJECTID":2215,"DPTO_CCDGO":"41","MPIO_CCDGO":"244","MPIO_CDPMP":"41244","MPIO_TIPO":"MUNICIPIO","MPIO_NAREA":80.441143839999995,"MPIO_NANO":2024,"DPTO_CNMBRE":"HUILA","MPIO_CNMBRE":"ELÍAS","MPIO_CRSLCION":"1830"}},{"type":"Feature","id":2216,"geometry":{"type":"Polygon","coordinates":[[[-75.6157,2.3177],[-75.6342,2.3096],[-75.6479,2.3091],[-75.6506,2.3007],[-75.6421,2.2943],[-75.6445,2.2865],[-75.6356,2.2853],[-75.6522,2.2671],[-75.6423,2.2634],[-75.6484,2.2572],[-75.6509,2.2476],[-75.6472,2.2268],[-75.657,2.2223],[-75.6578,2.2166],[-75.6617,2.2141],[-75.6705,2.2171],[-75.6696,2.2099],[-75.677,2.1998],[-75.6694,2.1968],[-75.6626,2.1988],[-75.6614,2.1875],[-75.666,2.1794],[-75.6719,2.1813],[-75.6753,2.1726],[-75.6829,2.172],[-75.6884,2.1667],[-75.6854,2.1643],[-75.6872,2.1575],[-75.6685,2.1415],[-75.679,2.1261],[-75.6837,2.1269],[-75.6884,2.1207],[-75.7001,2.1183],[-75.7004,2.1061],[-75.7082,2.0891],[-75.7049,2.0846],[-75.6978,2.085],[-75.6929,2.0667],[-75.6827,2.0686],[-75.6756,2.0513],[-75.6626,2.0412],[-75.6557,2.0423],[-75.653,2.0374],[-75.6349,2.0359],[-75.6333,2.0273],[-75.6113,2.0079],[-75.6,2.0175],[-75.5879,2.0136],[-75.5892,2.0225],[-75.5838,2.0272],[-75.5844,2.0312],[-75.5795,2.0377],[-75.5698,2.0414],[-75.5716,2.0497],[-75.5554,2.0693],[-75.5541,2.0803],[-75.5446,2.084],[-75.5414,2.0889],[-75.5406,2.1039],[-75.5358,2.1089],[-75.535,2.1177],[-75.5262,2.1229],[-75.5014,2.123],[-75.4866,2.1352],[-75.4763,2.1355],[-75.4683,2.1421],[-75.4529,2.1459],[-75.4451,2.1442],[-75.4424,2.147],[-75.4391,2.1632],[-75.4352,2.1724],[-75.4279,2.1795],[-75.4263,2.1881],[-75.4275,2.1974],[-75.4358,2.201],[-75.4396,2.2104],[-75.4386,2.2236],[-75.4335,2.2324],[-75.4185,2.2384],[-75.4104,2.2456],[-75.4133,2.2507],[-75.4086,2.2646],[-75.3967,2.2877],[-75.3905,2.2937],[-75.396,2.3019],[-75.3957,2.2957],[-75.4417,2.2764],[-75.4596,2.2612],[-75.468,2.2622],[-75.4716,2.2582],[-75.4776,2.2609],[-75.4817,2.2551],[-75.4886,2.2541],[-75.5,2.2649],[-75.5046,2.265],[-75.5163,2.2531],[-75.5233,2.2517],[-75.5346,2.2598],[-75.5386,2.2713],[-75.5518,2.2717],[-75.5634,2.2813],[-75.5705,2.2811],[-75.5861,2.3042],[-75.6157,2.3177]]]},"properties":{"OBJECTID":2216,"DPTO_CCDGO":"41","MPIO_CCDGO":"298","MPIO_CDPMP":"41298","MPIO_TIPO":"MUNICIPIO","MPIO_NAREA":606.35457874999997,"MPIO_NANO":2024,"DPTO_CNMBRE":"HUILA","MPIO_CNMBRE":"GARZÓN","MPIO_CRSLCION":"1783"}},{"type":"Feature","id":2217,"geometry":{"type":"Polygon","coordinates":[[[-75.5238,2.5124],[-75.5284,2.5184],[-75.5262,2.5224],[-75.5293,2.5281],[-75.5278,2.5337],[-75.5362,2.5316],[-75.5452,2.5166],[-75.5428,2.499],[-75.5464,2.4975],[-75.5543,2.5025],[-75.5641,2.4876],[-75.5698,2.4866],[-75.5626,2.4807],[-75.5583,2.4691],[-75.561,2.4645],[-75.5717,2.4589],[-75.5637,2.4483],[-75.5869,2.4349],[-75.5924,2.4222],[-75.5999,2.4168],[-75.604,2.4053],[-75.6095,2.4002],[-75.6084,2.3817],[-75.6151,2.3741],[-75.6282,2.3801],[-75.6383,2.3807],[-75.6458,2.376],[-75.6472,2.3699],[-75.6614,2.3638],[-75.6659,2.3557],[-75.6652,2.349],[-75.6617,2.3419],[-75.6519,2.3384],[-75.6466,2.3404],[-75.64,2.3352],[-75.6395,2.3312],[-75.6461,2.3266],[-75.6401,2.3152],[-75.6466,2.3109],[-75.6342,2.3096],[-75.6169,2.3177],[-75.6064,2.3151],[-75.5845,2.3028],[-75.5705,2.2811],[-75.5634,2.2813],[-75.5518,2.2717],[-75.5386,2.2713],[-75.5346,2.2598],[-75.5264,2.2523],[-75.5163,2.2531],[-75.5053,2.2648],[-75.501,2.2654],[-75.4891,2.2543],[-75.4836,2.2542],[-75.4776,2.2609],[-75.4716,2.2582],[-75.468,2.2622],[-75.4596,2.2612],[-75.4417,2.2764],[-75.3957,2.2957],[-75.3966,2.3011],[-75.3864,2.3161],[-75.3944,2.3331],[-75.3998,2.3368],[-75.4033,2.3497],[-75.4276,2.355],[-75.4308,2.3684],[-75.4379,2.373],[-75.4451,2.3856],[-75.4389,2.4166],[-75.4315,2.4303],[-75.4339,2.4417],[-75.4285,2.4496],[-75.4344,2.4592],[-75.4354,2.4686],[-75.4567,2.479],[-75.468,2.4766],[-75.4725,2.4801],[-75.4959,2.4843],[-75.5014,2.4977],[-75.4991,2.5005],[-75.5053,2.5093],[-75.5112,2.5103],[-75.5129,2.5146],[-75.5238,2.5124]]]},"properties":{"OBJECTID":2217,"DPTO_CCDGO":"41","MPIO_CCDGO":"306","MPIO_CDPMP":"41306","MPIO_TIPO":"MUNICIPIO","MPIO_NAREA":503.56427138999999,"MPIO_NANO":2024,"DPTO_CNMBRE":"HUILA","MPIO_CNMBRE":"GIGANTE","MPIO_CRSLCION":"1789"}},{"type":"Feature","id":2218,"geometry":{"type":"Polygon","coordinates":[[[-75.7049,2.0846],[-75.7082,2.0891],[-75.7111,2.0768],[-75.7213,2.0656],[-75.7331,2.0585],[-75.7338,2.0518],[-75.7378,2.0522],[-75.7402,2.0472],[-75.7453,2.0464],[-75.7431,2.0436],[-75.7488,2.0334],[-75.767,2.0228],[-75.7723,2.0299],[-75.7751,2.0283],[-75.7801,2.0122],[-75.7886,2.0007],[-75.7876,1.9962],[-75.7908,1.9965],[-75.7881,1.9875],[-75.7802,1.9858],[-75.7815,1.9777],[-75.7757,1.9748],[-75.7742,1.9607],[-75.7655,1.9477],[-75.7547,1.9454],[-75.7501,1.9383],[-75.7363,1.9419],[-75.7241,1.9382],[-75.7227,1.9189],[-75.7072,1.9122],[-75.706,1.8997],[-75.7008,1.896],[-75.6966,1.8854],[-75.6881,1.8807],[-75.668,1.8904],[-75.6597,1.891],[-75.6518,1.9011],[-75.643,1.9145],[-75.6413,1.9225],[-75.6474,1.9358],[-75.641,1.958],[-75.6239,1.9748],[-75.6162,1.9879],[-75.6161,1.997],[-75.5877,2.0124],[-75.5995,2.0175],[-75.6097,2.0081],[-75.6149,2.0088],[-75.6335,2.0275],[-75.634,2.0352],[-75.653,2.0374],[-75.6562,2.0426],[-75.6626,2.0412],[-75.6756,2.0513],[-75.6828,2.0686],[-75.6926,2.0666],[-75.6947,2.0688],[-75.694,2.0768],[-75.6983,2.0803],[-75.6988,2.0864],[-75.7049,2.0846]]]},"properties":{"OBJECTID":2218,"DPTO_CCDGO":"41","MPIO_CCDGO":"319","MPIO_CDPMP":"41319","MPIO_TIPO":"MUNICIPIO","MPIO_NAREA":249.56357746,"MPIO_NANO":2024,"DPTO_CNMBRE":"HUILA","MPIO_CNMBRE":"GUADALUPE","MPIO_CRSLCION":"Ordenanza 02, y sancionado según Decreto 476 de 1964"}},{"type":"Feature","id":2219,"geometry":{"type":"Polygon","coordinates":[[[-75.4419,2.6771],[-75.4457,2.6778],[-75.4437,2.6703],[-75.4475,2.6622],[-75.4456,2.6582],[-75.4422,2.6596],[-75.4425,2.657],[-75.4535,2.6498],[-75.4526,2.6471],[-75.4442,2.6473],[-75.4442,2.6384],[-75.4525,2.6332],[-75.4662,2.6315],[-75.4682,2.6067],[-75.4727,2.6077],[-75.4814,2.5998],[-75.476,2.5774],[-75.4936,2.5803],[-75.4949,2.5692],[-75.5019,2.5649],[-75.4955,2.5577],[-75.4985,2.5498],[-75.5097,2.5542],[-75.5151,2.544],[-75.5278,2.5465],[-75.5308,2.5441],[-75.5233,2.5369],[-75.5293,2.5323],[-75.5271,2.5155],[-75.5238,2.5124],[-75.5126,2.5145],[-75.5112,2.5103],[-75.5053,2.5093],[-75.4991,2.5005],[-75.5014,2.4977],[-75.4959,2.4843],[-75.4725,2.4801],[-75.468,2.4766],[-75.4567,2.479],[-75.4463,2.472],[-75.4389,2.4715],[-75.4289,2.4518],[-75.4191,2.4539],[-75.4114,2.4617],[-75.4104,2.4686],[-75.3969,2.4791],[-75.3782,2.5113],[-75.3856,2.517],[-75.3854,2.55],[-75.3945,2.559],[-75.4377,2.6253],[-75.4382,2.6374],[-75.4313,2.6502],[-75.4352,2.6553],[-75.4335,2.6617],[-75.4392,2.6638],[-75.4359,2.6766],[-75.4419,2.6771]]]},"properties":{"OBJECTID":2219,"DPTO_CCDGO":"41","MPIO_CCDGO":"349","MPIO_CDPMP":"41349","MPIO_TIPO":"MUNICIPIO","MPIO_NAREA":194.16719990000001,"MPIO_NANO":2024,"DPTO_CNMBRE":"HUILA","MPIO_CNMBRE":"HOBO","MPIO_CRSLCION":"1884"}},{"type":"Feature","id":2220,"geometry":{"type":"Polygon","coordinates":[[[-75.6755,2.7971],[-75.7288,2.7952],[-75.8104,2.7867],[-75.8118,2.779],[-75.8051,2.7675],[-75.8029,2.7686],[-75.7898,2.7584],[-75.7828,2.7631],[-75.7768,2.7541],[-75.7639,2.7524],[-75.7512,2.7425],[-75.7541,2.7362],[-75.7478,2.7192],[-75.7541,2.7128],[-75.7555,2.702],[-75.7524,2.6974],[-75.7572,2.6957],[-75.7572,2.6823],[-75.7608,2.679],[-75.7528,2.6769],[-75.7486,2.672],[-75.7449,2.6737],[-75.7404,2.6683],[-75.7231,2.6635],[-75.7203,2.6551],[-75.7235,2.638],[-75.7212,2.6322],[-75.7039,2.6282],[-75.7,2.6227],[-75.6564,2.6451],[-75.6512,2.635],[-75.6455,2.6351],[-75.6495,2.6189],[-75.6488,2.6021],[-75.6532,2.5885],[-75.6506,2.5726],[-75.6454,2.5681],[-75.6453,2.5604],[-75.6415,2.5605],[-75.6404,2.5562],[-75.6419,2.5423],[-75.639,2.5391],[-75.6285,2.5392],[-75.6265,2.5364],[-75.6156,2.539],[-75.6035,2.5339],[-75.5975,2.54],[-75.5897,2.542],[-75.5843,2.549],[-75.5902,2.5753],[-75.5882,2.5903],[-75.5922,2.5956],[-75.5884,2.6102],[-75.5903,2.6265],[-75.5867,2.6277],[-75.5876,2.6452],[-75.5949,2.6612],[-75.5877,2.6837],[-75.5943,2.6821],[-75.6158,2.694],[-75.6184,2.7118],[-75.6154,2.7224],[-75.6214,2.7434],[-75.6311,2.7526],[-75.6278,2.7546],[-75.6309,2.7613],[-75.6291,2.7675],[-75.6396,2.7899],[-75.6465,2.7902],[-75.6509,2.796],[-75.6755,2.7971]]]},"properties":{"OBJECTID":2220,"DPTO_CCDGO":"41","MPIO_CCDGO":"357","MPIO_CDPMP":"41357","MPIO_TIPO":"MUNICIPIO","MPIO_NAREA":356.44701795999998,"MPIO_NANO":2024,"DPTO_CNMBRE":"HUILA","MPIO_CNMBRE":"ÍQUIRA","MPIO_CRSLCION":"1887"}},{"type":"Feature","id":2221,"geometry":{"type":"Polygon","coordinates":[[[-76.3772,2.2141],[-76.3709,2.2548],[-76.3605,2.2707],[-76.3635,2.2773],[-76.3684,2.2791],[-76.3738,2.2791],[-76.3851,2.2685],[-76.3912,2.2473],[-76.3892,2.2421],[-76.3974,2.2311],[-76.4032,2.2036],[-76.4089,2.1969],[-76.4223,2.1903],[-76.4261,2.1787],[-76.4216,2.1658],[-76.4088,2.1591],[-76.4066,2.1489],[-76.3998,2.1473],[-76.4015,2.1427],[-76.3952,2.1335],[-76.3954,2.1278],[-76.3828,2.1139],[-76.381,2.1044],[-76.3859,2.1004],[-76.3834,2.0961],[-76.3854,2.0936],[-76.377,2.0848],[-76.379,2.0768],[-76.3641,2.0713],[-76.3617,2.0676],[-76.3493,2.0651],[-76.3453,2.0501],[-76.3217,2.0347],[-76.3192,2.0302],[-76.3046,2.0331],[-76.2945,2.0221],[-76.2903,2.0219],[-76.2874,2.0147],[-76.2848,2.0162],[-76.2741,2.0108],[-76.273,2.0034],[-76.2694,2.001],[-76.2683,1.9877],[-76.2744,1.981],[-76.2767,1.9828],[-76.2788,1.974],[-76.2842,1.9702],[-76.2812,1.9547],[-76.2826,1.9313],[-76.2776,1.9182],[-76.2693,1.9141],[-76.2716,1.9118],[-76.2598,1.8905],[-76.2506,1.8863],[-76.2458,1.8783],[-76.2393,1.8793],[-76.2392,1.8752],[-76.2302,1.8726],[-76.2288,1.8632],[-76.2249,1.8614],[-76.2277,1.8546],[-76.2184,1.8547],[-76.2104,1.8625],[-76.1946,1.8625],[-76.1794,1.8666],[-76.1768,1.8708],[-76.168,1.8666],[-76.1626,1.8785],[-76.166,1.887],[-76.1612,1.8929],[-76.1523,1.8961],[-76.1542,1.908],[-76.1514,1.9167],[-76.1268,1.9221],[-76.1135,1.9349],[-76.1007,1.9378],[-76.1015,1.9407],[-76.1054,1.9403],[-76.1055,1.9465],[-76.1105,1.9499],[-76.1273,1.9507],[-76.1387,1.9613],[-76.1466,1.9565],[-76.1605,1.9626],[-76.1614,1.9653],[-76.1538,1.9722],[-76.1562,1.981],[-76.1494,1.9801],[-76.1322,1.9969],[-76.1352,2.0007],[-76.1442,1.9975],[-76.1533,1.9995],[-76.1617,2.0109],[-76.169,2.0131],[-76.1819,2.0253],[-76.1881,2.0232],[-76.1994,2.0282],[-76.2073,2.0259],[-76.2156,2.0292],[-76.219,2.0268],[-76.224,2.034],[-76.23,2.0327],[-76.2384,2.0371],[-76.242,2.0446],[-76.2504,2.0507],[-76.2589,2.0518],[-76.2625,2.0556],[-76.281,2.054],[-76.281,2.058],[-76.2868,2.058],[-76.2941,2.0684],[-76.3074,2.0715],[-76.3089,2.0754],[-76.3131,2.0746],[-76.3173,2.0799],[-76.3258,2.0797],[-76.3282,2.0757],[-76.3456,2.0851],[-76.3565,2.1104],[-76.3638,2.1123],[-76.3689,2.1199],[-76.3638,2.1338],[-76.3644,2.1425],[-76.3792,2.1514],[-76.3688,2.1585],[-76.3649,2.1697],[-76.3783,2.1862],[-76.3784,2.1977],[-76.3847,2.2118],[-76.3772,2.2141]]]},"properties":{"OBJECTID":2221,"DPTO_CCDGO":"41","MPIO_CCDGO":"359","MPIO_CDPMP":"41359","MPIO_TIPO":"MUNICIPIO","MPIO_NAREA":370.7286939,"MPIO_NANO":2024,"DPTO_CNMBRE":"HUILA","MPIO_CNMBRE":"ISNOS","MPIO_CRSLCION":"Ordenanza 24 de Diciembre 6 de 1958"}},{"type":"Feature","id":2222,"geometry":{"type":"Polygon","coordinates":[[[-76.2983,2.2817],[-76.3029,2.2837],[-76.3233,2.2811],[-76.3438,2.2721],[-76.3605,2.2707],[-76.3471,2.2528],[-76.3425,2.2383],[-76.3282,2.2293],[-76.3145,2.2118],[-76.3047,2.2089],[-76.29,2.1984],[-76.2874,2.1924],[-76.2625,2.178],[-76.2391,2.1748],[-76.2209,2.1679],[-76.2035,2.151],[-76.1978,2.1332],[-76.173,2.1289],[-76.1681,2.1109],[-76.1517,2.1104],[-76.1502,2.1181],[-76.1356,2.129],[-76.1286,2.1297],[-76.1152,2.1195],[-76.1136,2.107],[-76.1039,2.0971],[-76.0824,2.1017],[-76.0731,2.0946],[-76.0576,2.0905],[-76.0327,2.0979],[-76.0274,2.0959],[-75.9731,2.144],[-75.9774,2.1545],[-75.9772,2.1636],[-75.9632,2.1758],[-75.9492,2.1782],[-75.9381,2.1843],[-75.9138,2.2055],[-75.9198,2.2183],[-75.9045,2.2286],[-75.9072,2.2324],[-75.8889,2.2603],[-75.8992,2.26],[-75.9042,2.2563],[-75.9085,2.2585],[-75.9289,2.2511],[-75.9506,2.2337],[-75.9533,2.224],[-75.9609,2.2161],[-75.9663,2.2178],[-75.9696,2.2252],[-75.9665,2.2326],[-75.9738,2.2411],[-75.9813,2.2238],[-75.9877,2.2174],[-75.9927,2.2024],[-75.9993,2.2035],[-76.0036,2.199],[-76.006,2.2001],[-76.0161,2.1895],[-76.0233,2.19],[-76.0322,2.1971],[-76.0843,2.1906],[-76.0886,2.1888],[-76.0901,2.1828],[-76.0975,2.1833],[-76.1127,2.177],[-76.1213,2.1829],[-76.1467,2.1528],[-76.1609,2.1515],[-76.1678,2.1561],[-76.1816,2.1573],[-76.1806,2.1671],[-76.1875,2.1664],[-76.1921,2.1756],[-76.2029,2.1824],[-76.2028,2.1942],[-76.2093,2.1984],[-76.2127,2.2054],[-76.2195,2.2076],[-76.2326,2.2259],[-76.2388,2.228],[-76.2496,2.2467],[-76.2702,2.2621],[-76.2761,2.271],[-76.2888,2.2743],[-76.2983,2.2817]]]},"properties":{"OBJECTID":2222,"DPTO_CCDGO":"41","MPIO_CCDGO":"378","MPIO_CDPMP":"41378","MPIO_TIPO":"MUNICIPIO","MPIO_NAREA":356.45765857999999,"MPIO_NANO":2024,"DPTO_CNMBRE":"HUILA","MPIO_CNMBRE":"LA ARGENTINA","MPIO_CRSLCION":"Ordenanza 36 del 2 de Diciembre de 1959"}},{"type":"Feature","id":2223,"geometry":{"type":"Polygon","coordinates":[[[-75.9746,2.5022],[-75.9795,2.5035],[-75.9858,2.493],[-75.9892,2.4788],[-75.9947,2.477],[-76.0055,2.4583],[-76.0198,2.4474],[-76.0213,2.4336],[-76.0325,2.4026],[-76.0408,2.4007],[-76.063,2.4106],[-76.0892,2.4159],[-76.0934,2.4101],[-76.0977,2.41],[-76.0988,2.4057],[-76.1036,2.4058],[-76.1089,2.3962],[-76.1202,2.3905],[-76.1261,2.38],[-76.1465,2.294],[-76.1211,2.2248],[-76.1362,2.221],[-76.1404,2.2085],[-76.1536,2.1988],[-76.1965,2.1954],[-76.2082,2.198],[-76.2028,2.1942],[-76.2029,2.1824],[-76.1921,2.1756],[-76.1875,2.1664],[-76.1806,2.1671],[-76.1816,2.1573],[-76.1678,2.1561],[-76.1619,2.1515],[-76.1467,2.1528],[-76.1217,2.1828],[-76.1127,2.177],[-76.0975,2.1833],[-76.0901,2.1828],[-76.0878,2.1897],[-76.0751,2.1927],[-76.065,2.1915],[-76.0622,2.1946],[-76.0465,2.1936],[-76.0313,2.1972],[-76.0233,2.19],[-76.0161,2.1895],[-76.006,2.2001],[-76.0036,2.199],[-75.9993,2.2035],[-75.9927,2.2024],[-75.9877,2.2174],[-75.9813,2.2238],[-75.9738,2.2411],[-75.9665,2.2326],[-75.9696,2.2252],[-75.9663,2.2178],[-75.9591,2.2165],[-75.9506,2.2337],[-75.9289,2.2511],[-75.9085,2.2585],[-75.9042,2.2563],[-75.8992,2.26],[-75.8889,2.2603],[-75.8911,2.2701],[-75.9013,2.2675],[-75.9086,2.2724],[-75.9067,2.2806],[-75.8995,2.2817],[-75.8937,2.2895],[-75.8966,2.3003],[-75.9034,2.3024],[-75.8965,2.3141],[-75.8932,2.3167],[-75.8863,2.3096],[-75.8762,2.3079],[-75.8705,2.3096],[-75.8598,2.3226],[-75.8407,2.3277],[-75.8371,2.3457],[-75.8287,2.3488],[-75.8315,2.3564],[-75.8288,2.3661],[-75.8303,2.3781],[-75.8281,2.3845],[-75.8198,2.3925],[-75.8163,2.4216],[-75.8165,2.4245],[-75.8208,2.424],[-75.8283,2.4304],[-75.8308,2.439],[-75.8428,2.4483],[-75.8413,2.4591],[-75.849,2.4583],[-75.8453,2.4525],[-75.8471,2.4505],[-75.8514,2.4515],[-75.851,2.4558],[-75.8535,2.4544],[-75.8514,2.4481],[-75.8605,2.4405],[-75.8558,2.4384],[-75.8561,2.434],[-75.8635,2.4264],[-75.8742,2.4261],[-75.8728,2.4317],[-75.8812,2.4276],[-75.8844,2.4294],[-75.8875,2.4251],[-75.8872,2.43],[-75.8918,2.4315],[-75.8886,2.4342],[-75.8946,2.4333],[-75.8943,2.4366],[-75.9009,2.4424],[-75.9057,2.4421],[-75.9102,2.4462],[-75.9122,2.4551],[-75.9176,2.457],[-75.9157,2.4712],[-75.922,2.4747],[-75.924,2.4812],[-75.9294,2.4817],[-75.9318,2.4784],[-75.9373,2.4881],[-75.9527,2.4871],[-75.9583,2.4904],[-75.9626,2.4986],[-75.9746,2.5022]]]},"properties":{"OBJECTID":2223,"DPTO_CCDGO":"41","MPIO_CCDGO":"396","MPIO_CDPMP":"41396","MPIO_TIPO":"MUNICIPIO","MPIO_NAREA":814.67135451000001,"MPIO_NANO":2024,"DPTO_CNMBRE":"HUILA","MPIO_CNMBRE":"LA PLATA","MPIO_CRSLCION":"Ordenanza 25 de 1825"}},{"type":"Feature","id":2224,"geometry":{"type":"Polygon","coordinates":[[[-75.7608,2.679],[-75.7715,2.6772],[-75.7806,2.6596],[-75.7891,2.6582],[-75.791,2.6304],[-75.7968,2.6288],[-75.7946,2.6264],[-75.8006,2.6231],[-75.81,2.6002],[-75.8245,2.5908],[-75.827,2.5753],[-75.8359,2.5703],[-75.84,2.5592],[-75.8335,2.5521],[-75.8367,2.5392],[-75.8247,2.5288],[-75.8235,2.5217],[-75.8193,2.5197],[-75.8221,2.4925],[-75.814,2.4839],[-75.8028,2.4803],[-75.8029,2.4752],[-75.7949,2.4757],[-75.786,2.4873],[-75.7766,2.4927],[-75.7758,2.5005],[-75.7694,2.5092],[-75.7658,2.5261],[-75.7686,2.5583],[-75.7659,2.5597],[-75.7689,2.5689],[-75.7594,2.5859],[-75.739,2.5861],[-75.7356,2.5885],[-75.7383,2.6043],[-75.7559,2.613],[-75.7608,2.6204],[-75.7528,2.6368],[-75.7402,2.6472],[-75.7397,2.6553],[-75.7308,2.6663],[-75.7608,2.679]]]},"properties":{"OBJECTID":2224,"DPTO_CCDGO":"41","MPIO_CCDGO":"483","MPIO_CDPMP":"41483","MPIO_TIPO":"MUNICIPIO","MPIO_NAREA":131.92458585,"MPIO_NANO":2024,"DPTO_CNMBRE":"HUILA","MPIO_CNMBRE":"NÁTAGA","MPIO_CRSLCION":"Ordenanza 25 del 27 de Noviembre de 1967"}},{"type":"Feature","id":2225,"geometry":{"type":"Polygon","coordinates":[[[-76.1139,2.1108],[-76.1152,2.1195],[-76.1286,2.1297],[-76.1356,2.129],[-76.1502,2.1181],[-76.1371,2.1086],[-76.1253,2.1094],[-76.109,2.0892],[-76.1085,2.0733],[-76.1146,2.0636],[-76.115,2.0521],[-76.1075,2.0417],[-76.1109,2.0346],[-76.109,2.0289],[-76.1016,2.0263],[-76.0965,2.0187],[-76.0858,2.0181],[-76.0709,2.0278],[-76.0443,2.0107],[-76.0307,2.0099],[-76.0009,2.0004],[-75.9972,2.0021],[-75.9957,2.0104],[-75.9856,2.0122],[-75.9792,2.0232],[-75.9703,2.03],[-75.966,2.0297],[-75.9625,2.0346],[-75.9629,2.0413],[-75.9701,2.0462],[-75.9795,2.0661],[-75.9675,2.0917],[-75.9717,2.0945],[-75.9704,2.1071],[-75.9729,2.11],[-76.0063,2.1147],[-76.0274,2.0959],[-76.0327,2.0979],[-76.0576,2.0905],[-76.0731,2.0946],[-76.0824,2.1017],[-76.1039,2.0971],[-76.1139,2.1108]]]},"properties":{"OBJECTID":2225,"DPTO_CCDGO":"41","MPIO_CCDGO":"503","MPIO_CDPMP":"41503","MPIO_TIPO":"MUNICIPIO","MPIO_NAREA":155.82072210999999,"MPIO_NANO":2024,"DPTO_CNMBRE":"HUILA","MPIO_CNMBRE":"OPORAPA","MPIO_CRSLCION":"Ordenanza 10 del 18 de Noviembre de 1963"}},{"type":"Feature","id":2226,"geometry":{"type":"Polygon","coordinates":[[[-75.8112,2.4839],[-75.8231,2.4833],[-75.8248,2.4761],[-75.8284,2.4801],[-75.8291,2.474],[-75.8431,2.4663],[-75.842,2.4626],[-75.8361,2.4632],[-75.8422,2.4575],[-75.8428,2.4484],[-75.8308,2.439],[-75.8301,2.4332],[-75.8246,2.4267],[-75.8165,2.4245],[-75.8198,2.3925],[-75.8281,2.3845],[-75.8303,2.3781],[-75.831,2.3548],[-75.8114,2.3458],[-75.8094,2.3328],[-75.8028,2.3316],[-75.7998,2.3275],[-75.7885,2.3302],[-75.7817,2.3262],[-75.7879,2.3404],[-75.7852,2.3476],[-75.7866,2.3615],[-75.7805,2.3639],[-75.7723,2.3631],[-75.7653,2.3569],[-75.7576,2.3633],[-75.7509,2.361],[-75.7482,2.3632],[-75.7459,2.3591],[-75.7349,2.3565],[-75.7317,2.3602],[-75.7221,2.36],[-75.7147,2.3504],[-75.7055,2.3452],[-75.6971,2.3333],[-75.6939,2.3306],[-75.6894,2.3335],[-75.6841,2.3254],[-75.6803,2.3303],[-75.6813,2.3464],[-75.6645,2.3562],[-75.6577,2.3666],[-75.6472,2.3699],[-75.6458,2.376],[-75.6376,2.3809],[-75.6151,2.3741],[-75.6084,2.3817],[-75.6095,2.4002],[-75.604,2.4053],[-75.5999,2.4168],[-75.5924,2.4222],[-75.5869,2.4349],[-75.5637,2.4483],[-75.5714,2.4581],[-75.5687,2.4623],[-75.5729,2.4605],[-75.5755,2.4497],[-75.5791,2.4471],[-75.5832,2.453],[-75.5899,2.4528],[-75.5892,2.4576],[-75.5923,2.4581],[-75.5994,2.4515],[-75.5937,2.4479],[-75.6086,2.4337],[-75.6123,2.4342],[-75.6149,2.4293],[-75.6222,2.4332],[-75.6323,2.4301],[-75.6319,2.4239],[-75.6367,2.4225],[-75.6385,2.4292],[-75.6448,2.4289],[-75.6453,2.4324],[-75.6447,2.4354],[-75.6361,2.4379],[-75.6375,2.4417],[-75.641,2.4432],[-75.651,2.4327],[-75.6571,2.4315],[-75.6598,2.436],[-75.6591,2.4463],[-75.6732,2.4424],[-75.6664,2.4512],[-75.6711,2.4526],[-75.6706,2.4569],[-75.6743,2.4605],[-75.6783,2.4554],[-75.6856,2.4617],[-75.6902,2.4568],[-75.6909,2.4615],[-75.6934,2.4616],[-75.698,2.4537],[-75.7079,2.4511],[-75.7055,2.4474],[-75.709,2.4443],[-75.7094,2.45],[-75.7149,2.4532],[-75.7162,2.4498],[-75.7118,2.4453],[-75.7142,2.4427],[-75.7187,2.4475],[-75.7242,2.4459],[-75.7273,2.4512],[-75.7359,2.4478],[-75.7443,2.4573],[-75.7468,2.4552],[-75.7448,2.4493],[-75.7627,2.4608],[-75.7658,2.457],[-75.7949,2.4757],[-75.8029,2.4752],[-75.8028,2.4803],[-75.8112,2.4839]]]},"properties":{"OBJECTID":2226,"DPTO_CCDGO":"41","MPIO_CCDGO":"518","MPIO_CDPMP":"41518","MPIO_TIPO":"MUNICIPIO","MPIO_NAREA":278.26742359000002,"MPIO_NANO":2024,"DPTO_CNMBRE":"HUILA","MPIO_CNMBRE":"PAICOL","MPIO_CRSLCION":"1810"}},{"type":"Feature","id":2227,"geometry":{"type":"Polygon","coordinates":[[[-75.5397,3.0753],[-75.5393,3.0807],[-75.5518,3.0905],[-75.5495,3.0925],[-75.5578,3.1044],[-75.576,3.0964],[-75.5936,3.0772],[-75.6015,3.0392],[-75.6091,3.033],[-75.6138,3.0235],[-75.6057,3.0239],[-75.5871,3.0052],[-75.577,2.9788],[-75.5726,2.9774],[-75.5603,2.9822],[-75.5547,2.9789],[-75.5452,2.982],[-75.5409,2.9772],[-75.5335,2.9785],[-75.514,2.9693],[-75.5049,2.972],[-75.4979,2.9684],[-75.4946,2.9574],[-75.5109,2.9424],[-75.5335,2.9005],[-75.5334,2.8951],[-75.5446,2.8821],[-75.5579,2.8806],[-75.5853,2.8924],[-75.5997,2.8899],[-75.6217,2.8782],[-75.6242,2.8688],[-75.6222,2.8533],[-75.6079,2.8469],[-75.5866,2.844],[-75.5792,2.8344],[-75.576,2.8137],[-75.5693,2.8201],[-75.5471,2.8309],[-75.5369,2.8234],[-75.5338,2.8174],[-75.5178,2.8232],[-75.5214,2.8177],[-75.5211,2.8087],[-75.5169,2.8072],[-75.5166,2.8012],[-75.51,2.7994],[-75.5007,2.8054],[-75.4946,2.8042],[-75.4908,2.7877],[-75.4983,2.7672],[-75.4867,2.7633],[-75.4638,2.7648],[-75.4532,2.7759],[-75.4371,2.7753],[-75.432,2.7563],[-75.4344,2.753],[-75.4326,2.7485],[-75.4361,2.7488],[-75.4358,2.7456],[-75.4315,2.7429],[-75.4283,2.7323],[-75.4224,2.7364],[-75.4114,2.7352],[-75.4046,2.7436],[-75.3929,2.7226],[-75.3786,2.7384],[-75.378,2.7488],[-75.3678,2.7554],[-75.3642,2.7667],[-75.3522,2.7668],[-75.3358,2.7783],[-75.3347,2.7893],[-75.3287,2.7941],[-75.3197,2.8114],[-75.3128,2.8336],[-75.2979,2.8432],[-75.2984,2.8552],[-75.2902,2.8684],[-75.29,2.8859],[-75.2937,2.891],[-75.293,2.8989],[-75.2966,2.901],[-75.2923,2.9081],[-75.2969,2.9114],[-75.297,2.9215],[-75.3043,2.9248],[-75.3041,2.9345],[-75.3091,2.9396],[-75.3069,2.9536],[-75.3007,2.9615],[-75.3006,2.9712],[-75.3039,2.9715],[-75.3065,2.9672],[-75.3161,2.97],[-75.3292,3.0071],[-75.3358,3.0166],[-75.3326,3.0306],[-75.3389,3.0416],[-75.3453,3.0408],[-75.3551,3.0474],[-75.3599,3.0401],[-75.3729,3.045],[-75.3766,3.0428],[-75.3928,3.0529],[-75.4032,3.052],[-75.3984,3.0579],[-75.4009,3.0609],[-75.3984,3.0728],[-75.4138,3.0857],[-75.4232,3.0885],[-75.425,3.0968],[-75.4298,3.0951],[-75.4391,3.0483],[-75.4507,3.0396],[-75.4536,3.03],[-75.4581,3.0287],[-75.4632,3.0211],[-75.4765,3.0282],[-75.4912,3.0266],[-75.4887,3.032],[-75.4926,3.0362],[-75.5029,3.0343],[-75.5131,3.0385],[-75.5314,3.0377],[-75.5263,3.0506],[-75.5291,3.0555],[-75.5235,3.0624],[-75.5235,3.0686],[-75.5371,3.0715],[-75.5397,3.0753]]]},"properties":{"OBJECTID":2227,"DPTO_CCDGO":"41","MPIO_CCDGO":"524","MPIO_CDPMP":"41524","MPIO_TIPO":"MUNICIPIO","MPIO_NAREA":883.95689020999998,"MPIO_NANO":2024,"DPTO_CNMBRE":"HUILA","MPIO_CNMBRE":"PALERMO","MPIO_CRSLCION":"1774"}},{"type":"Feature","id":2228,"geometry":{"type":"Polygon","coordinates":[[[-76.1122,1.7754],[-76.1194,1.7748],[-76.1268,1.7644],[-76.1358,1.7685],[-76.1392,1.7669],[-76.1421,1.7565],[-76.161,1.7383],[-76.1681,1.7183],[-76.1791,1.7069],[-76.1788,1.7009],[-76.1843,1.6918],[-76.1925,1.6828],[-76.2027,1.6794],[-76.2277,1.6631],[-76.2252,1.655],[-76.2116,1.6407],[-76.215,1.6356],[-76.2086,1.6258],[-76.2082,1.6135],[-76.2119,1.6065],[-76.2097,1.6001],[-76.2007,1.592],[-76.2026,1.579],[-76.1915,1.5719],[-76.1828,1.5739],[-76.1709,1.5877],[-76.1529,1.6],[-76.1426,1.6001],[-76.1388,1.6114],[-76.125,1.6179],[-76.1192,1.6308],[-76.101,1.6412],[-76.1127,1.6489],[-76.1253,1.6505],[-76.1108,1.6546],[-76.1079,1.6699],[-76.1029,1.6769],[-76.1113,1.6797],[-76.116,1.6928],[-76.1082,1.6979],[-76.1084,1.7028],[-76.0993,1.7164],[-76.0644,1.7279],[-76.0578,1.738],[-76.0673,1.7676],[-76.0754,1.7685],[-76.0865,1.7749],[-76.0981,1.7677],[-76.1122,1.7754]]]},"properties":{"OBJECTID":2228,"DPTO_CCDGO":"41","MPIO_CCDGO":"530","MPIO_CDPMP":"41530","MPIO_TIPO":"MUNICIPIO","MPIO_NAREA":196.96122926999999,"MPIO_NANO":2024,"DPTO_CNMBRE":"HUILA","MPIO_CNMBRE":"PALESTINA","MPIO_CRSLCION":"Ordenanza 002 de Noviembre de 1984"}},{"type":"Feature","id":2229,"geometry":{"type":"Polygon","coordinates":[[[-75.8263,2.3532],[-75.83,2.3508],[-75.8287,2.3487],[-75.8371,2.3457],[-75.8414,2.3269],[-75.8599,2.3225],[-75.8705,2.3096],[-75.8863,2.3096],[-75.8932,2.3167],[-75.8977,2.3126],[-75.9034,2.3024],[-75.8966,2.3003],[-75.8935,2.2901],[-75.8988,2.2822],[-75.9067,2.2806],[-75.9086,2.2724],[-75.9013,2.2675],[-75.8911,2.2701],[-75.8889,2.2604],[-75.9072,2.2324],[-75.9045,2.2286],[-75.9196,2.2187],[-75.9193,2.2128],[-75.9075,2.2002],[-75.8961,2.2008],[-75.8839,2.2165],[-75.8732,2.2207],[-75.8572,2.2114],[-75.8583,2.2088],[-75.8531,2.2127],[-75.8412,2.2143],[-75.8328,2.2074],[-75.8291,2.1984],[-75.8257,2.1995],[-75.8182,2.1932],[-75.8041,2.2001],[-75.7869,2.2004],[-75.7813,2.1924],[-75.7646,2.1889],[-75.7608,2.181],[-75.7541,2.1768],[-75.7523,2.1698],[-75.7421,2.1626],[-75.7296,2.1632],[-75.7394,2.1833],[-75.7649,2.2007],[-75.773,2.2155],[-75.7864,2.2185],[-75.7899,2.2272],[-75.765,2.225],[-75.7557,2.228],[-75.7482,2.2237],[-75.7362,2.2281],[-75.7328,2.2328],[-75.7358,2.2366],[-75.7488,2.2395],[-75.7794,2.2352],[-75.7845,2.2661],[-75.7804,2.2741],[-75.7814,2.2843],[-75.7863,2.2977],[-75.7985,2.3127],[-75.782,2.326],[-75.7885,2.3302],[-75.7998,2.3275],[-75.8028,2.3316],[-75.8085,2.3317],[-75.8114,2.3458],[-75.8263,2.3532]]]},"properties":{"OBJECTID":2229,"DPTO_CCDGO":"41","MPIO_CCDGO":"548","MPIO_CDPMP":"41548","MPIO_TIPO":"MUNICIPIO","MPIO_NAREA":193.64327460000001,"MPIO_NANO":2024,"DPTO_CNMBRE":"HUILA","MPIO_CNMBRE":"PITAL","MPIO_CRSLCION":"1780"}},{"type":"Feature","id":2230,"geometry":{"type":"Polygon","coordinates":[[[-76.1271,1.9967],[-76.1337,1.9968],[-76.1494,1.9801],[-76.1562,1.981],[-76.1539,1.9718],[-76.1612,1.9642],[-76.1466,1.9565],[-76.1387,1.9613],[-76.1374,1.9579],[-76.1215,1.949],[-76.1105,1.9499],[-76.1055,1.9465],[-76.1054,1.9403],[-76.1015,1.9407],[-76.1007,1.9378],[-76.1135,1.9349],[-76.1268,1.9221],[-76.1514,1.9167],[-76.1542,1.908],[-76.1523,1.8961],[-76.1612,1.8929],[-76.166,1.887],[-76.1626,1.8785],[-76.1668,1.8676],[-76.1768,1.8708],[-76.1774,1.8672],[-76.1926,1.864],[-76.2002,1.8584],[-76.2002,1.8377],[-76.1974,1.8363],[-76.2052,1.8306],[-76.2036,1.8262],[-76.2108,1.8219],[-76.2123,1.8139],[-76.2171,1.8109],[-76.2233,1.7981],[-76.2388,1.7874],[-76.2416,1.78],[-76.2389,1.768],[-76.2522,1.7466],[-76.2713,1.7354],[-76.2786,1.7379],[-76.2975,1.7331],[-76.3004,1.7253],[-76.3093,1.7168],[-76.3207,1.7126],[-76.3217,1.695],[-76.3162,1.6844],[-76.3016,1.6902],[-76.2867,1.6851],[-76.2815,1.6766],[-76.2723,1.6745],[-76.2644,1.6771],[-76.2538,1.6741],[-76.2423,1.6831],[-76.235,1.6683],[-76.2264,1.6647],[-76.1925,1.6828],[-76.1843,1.6918],[-76.1788,1.7009],[-76.1791,1.7069],[-76.1681,1.7183],[-76.161,1.7383],[-76.1456,1.7521],[-76.1378,1.7682],[-76.1268,1.7644],[-76.1156,1.776],[-76.0981,1.7677],[-76.0865,1.7749],[-76.0754,1.7685],[-76.0673,1.7676],[-76.0613,1.7433],[-76.0544,1.7354],[-76.0422,1.7433],[-76.0274,1.7423],[-76.0235,1.7514],[-76.0091,1.7646],[-76.008,1.7722],[-76.0139,1.7838],[-75.994,1.8046],[-75.9934,1.8172],[-75.9842,1.82],[-75.9803,1.8408],[-75.9681,1.8442],[-75.9622,1.8519],[-75.9625,1.8544],[-75.9683,1.8535],[-75.9804,1.8661],[-75.9784,1.8772],[-75.9805,1.8827],[-75.9864,1.8875],[-75.9904,1.8866],[-75.9967,1.9045],[-75.9878,1.9299],[-75.9868,1.9587],[-75.9919,1.9605],[-76.0109,1.9568],[-76.0182,1.9598],[-76.0249,1.9769],[-76.0293,1.977],[-76.0318,1.9732],[-76.0312,1.9658],[-76.0344,1.9677],[-76.0362,1.9628],[-76.0401,1.9657],[-76.052,1.9598],[-76.0545,1.9674],[-76.0717,1.9731],[-76.0749,1.9705],[-76.0834,1.9794],[-76.0945,1.9835],[-76.1093,1.983],[-76.1271,1.9967]]]},"properties":{"OBJECTID":2230,"DPTO_CCDGO":"41","MPIO_CCDGO":"551","MPIO_CDPMP":"41551","MPIO_TIPO":"MUNICIPIO","MPIO_NAREA":630.73166155000001,"MPIO_NANO":2024,"DPTO_CNMBRE":"HUILA","MPIO_CNMBRE":"PITALITO","MPIO_CRSLCION":"1818"}},{"type":"Feature","id":2231,"geometry":{"type":"Polygon","coordinates":[[[-75.2865,2.8651],[-75.2902,2.8684],[-75.298,2.856],[-75.2984,2.842],[-75.3128,2.8336],[-75.3197,2.8114],[-75.3287,2.7941],[-75.3347,2.7893],[-75.3335,2.7671],[-75.3277,2.7614],[-75.3232,2.7517],[-75.3249,2.7481],[-75.3196,2.7406],[-75.3089,2.7485],[-75.2995,2.7472],[-75.2826,2.753],[-75.256,2.7466],[-75.245,2.7305],[-75.2287,2.7205],[-75.2104,2.703],[-75.214,2.6909],[-75.1907,2.6941],[-75.182,2.6987],[-75.1771,2.697],[-75.172,2.7033],[-75.1647,2.706],[-75.1566,2.7049],[-75.1453,2.7234],[-75.145,2.7306],[-75.1389,2.7363],[-75.1353,2.7496],[-75.1402,2.7569],[-75.1512,2.7603],[-75.1553,2.7565],[-75.167,2.7653],[-75.1582,2.7718],[-75.1646,2.7835],[-75.1713,2.7871],[-75.1701,2.796],[-75.1607,2.8004],[-75.1606,2.8084],[-75.1805,2.8159],[-75.1815,2.8221],[-75.1929,2.825],[-75.2012,2.8319],[-75.2086,2.8448],[-75.2082,2.8501],[-75.2163,2.861],[-75.235,2.8608],[-75.2388,2.8573],[-75.2513,2.8565],[-75.2865,2.8651]]]},"properties":{"OBJECTID":2231,"DPTO_CCDGO":"41","MPIO_CCDGO":"615","MPIO_CDPMP":"41615","MPIO_TIPO":"MUNICIPIO","MPIO_NAREA":251.10959736000001,"MPIO_NANO":2024,"DPTO_CNMBRE":"HUILA","MPIO_CNMBRE":"RIVERA","MPIO_CRSLCION":"1888"}},{"type":"Feature","id":2232,"geometry":{"type":"Polygon","coordinates":[[[-76.3145,2.2136],[-76.3282,2.2293],[-76.3425,2.2383],[-76.3471,2.2528],[-76.3605,2.2707],[-76.3709,2.2548],[-76.3717,2.2401],[-76.3762,2.2285],[-76.3748,2.2175],[-76.3776,2.2134],[-76.3839,2.2139],[-76.3847,2.2103],[-76.3784,2.1977],[-76.3777,2.1848],[-76.3651,2.1714],[-76.3688,2.1585],[-76.3792,2.1514],[-76.3644,2.1425],[-76.3638,2.1338],[-76.3689,2.1199],[-76.3638,2.1123],[-76.3565,2.1104],[-76.3431,2.0831],[-76.3388,2.0834],[-76.3279,2.0756],[-76.3258,2.0797],[-76.3173,2.0799],[-76.3131,2.0746],[-76.3089,2.0754],[-76.3074,2.0715],[-76.2941,2.0684],[-76.2868,2.058],[-76.281,2.058],[-76.281,2.054],[-76.2625,2.0556],[-76.2589,2.0518],[-76.2504,2.0507],[-76.242,2.0446],[-76.2384,2.0371],[-76.23,2.0327],[-76.224,2.034],[-76.219,2.0268],[-76.2156,2.0292],[-76.2073,2.0259],[-76.1994,2.0282],[-76.1881,2.0232],[-76.1819,2.0253],[-76.169,2.0131],[-76.1617,2.0109],[-76.1533,1.9995],[-76.1442,1.9975],[-76.1352,2.0007],[-76.1093,1.983],[-76.0945,1.9835],[-76.0834,1.9794],[-76.0749,1.9705],[-76.0717,1.9731],[-76.0545,1.9674],[-76.052,1.9598],[-76.0401,1.9657],[-76.0362,1.9628],[-76.0344,1.9677],[-76.0312,1.9658],[-76.0298,1.9767],[-76.0215,1.9771],[-76.0155,1.9824],[-76.0159,1.9864],[-76.0067,1.9897],[-76.0044,1.9964],[-76.0078,2.003],[-76.0307,2.0099],[-76.0443,2.0107],[-76.0681,2.0271],[-76.0721,2.0278],[-76.0858,2.0181],[-76.0966,2.0187],[-76.1016,2.0263],[-76.109,2.0289],[-76.1109,2.0346],[-76.1075,2.0417],[-76.115,2.0521],[-76.1146,2.0636],[-76.1085,2.0733],[-76.109,2.0892],[-76.1253,2.1094],[-76.1371,2.1086],[-76.1502,2.1181],[-76.1517,2.1104],[-76.1681,2.1109],[-76.173,2.1289],[-76.1978,2.1332],[-76.2035,2.151],[-76.2209,2.1679],[-76.2391,2.1748],[-76.2649,2.1791],[-76.3145,2.2136]]]},"properties":{"OBJECTID":2232,"DPTO_CCDGO":"41","MPIO_CCDGO":"660","MPIO_CDPMP":"41660","MPIO_TIPO":"MUNICIPIO","MPIO_NAREA":466.72716474999999,"MPIO_NANO":2024,"DPTO_CNMBRE":"HUILA","MPIO_CNMBRE":"SALADOBLANCO","MPIO_CRSLCION":"Ordenanza 10 del 14 de diciembre de 1948"}},{"type":"Feature","id":2233,"geometry":{"type":"Polygon","coordinates":[[[-76.421,2.1656],[-76.4261,2.1787],[-76.4248,2.1873],[-76.4195,2.1918],[-76.4337,2.1881],[-76.4367,2.1779],[-76.4318,2.1724],[-76.4374,2.1652],[-76.4361,2.1551],[-76.4247,2.1289],[-76.4309,2.1204],[-76.4483,2.1164],[-76.4664,2.1003],[-76.4722,2.1021],[-76.4746,2.1092],[-76.4806,2.1109],[-76.4874,2.1291],[-76.5032,2.1262],[-76.5075,2.1328],[-76.5134,2.1353],[-76.5418,2.134],[-76.5529,2.1397],[-76.5902,2.1081],[-76.5901,2.0948],[-76.5824,2.0867],[-76.5839,2.0823],[-76.5773,2.0565],[-76.5841,2.0466],[-76.5861,2.0346],[-76.5803,2.0291],[-76.5738,2.0299],[-76.5725,2.0197],[-76.5791,2.0102],[-76.5792,2.0017],[-76.5874,2.0004],[-76.5894,2.0056],[-76.5923,2.0055],[-76.6,1.9974],[-76.6107,1.995],[-76.6243,1.9738],[-76.622,1.9587],[-76.6105,1.9467],[-76.6197,1.9281],[-76.595,1.92],[-76.5837,1.901],[-76.5787,1.8987],[-76.5842,1.8863],[-76.5921,1.8814],[-76.5903,1.8682],[-76.5693,1.8558],[-76.5687,1.8497],[-76.5573,1.8392],[-76.5454,1.84],[-76.5304,1.8235],[-76.5214,1.8249],[-76.5223,1.8282],[-76.5127,1.8336],[-76.4983,1.8257],[-76.4888,1.8258],[-76.4673,1.814],[-76.4491,1.7976],[-76.4351,1.7918],[-76.4209,1.7561],[-76.4236,1.7466],[-76.4305,1.741],[-76.4267,1.727],[-76.4195,1.7178],[-76.4144,1.7173],[-76.4071,1.7306],[-76.3826,1.7468],[-76.3719,1.7425],[-76.3735,1.7345],[-76.3698,1.7325],[-76.3776,1.6994],[-76.3754,1.6842],[-76.3796,1.6809],[-76.3783,1.6757],[-76.3819,1.6677],[-76.3749,1.6636],[-76.3635,1.6699],[-76.3483,1.6618],[-76.3414,1.6647],[-76.3256,1.6631],[-76.3162,1.6844],[-76.3217,1.695],[-76.3207,1.7126],[-76.3093,1.7168],[-76.3004,1.7253],[-76.2975,1.7331],[-76.2786,1.7379],[-76.2713,1.7354],[-76.2522,1.7466],[-76.2389,1.768],[-76.2416,1.78],[-76.2388,1.7874],[-76.2233,1.7981],[-76.2171,1.8109],[-76.2123,1.8139],[-76.2108,1.8219],[-76.2036,1.8262],[-76.2052,1.8306],[-76.1974,1.8363],[-76.2002,1.8377],[-76.1984,1.8516],[-76.2014,1.8561],[-76.1946,1.8625],[-76.2104,1.8625],[-76.2184,1.8547],[-76.2271,1.8541],[-76.2249,1.8614],[-76.2288,1.8632],[-76.2302,1.8726],[-76.2392,1.8752],[-76.2393,1.8793],[-76.2458,1.8783],[-76.2506,1.8863],[-76.2598,1.8905],[-76.2716,1.9118],[-76.2693,1.9141],[-76.2776,1.9182],[-76.2826,1.9315],[-76.2812,1.9547],[-76.2842,1.9702],[-76.2788,1.974],[-76.2767,1.9828],[-76.2744,1.981],[-76.2683,1.9877],[-76.2694,2.001],[-76.273,2.0034],[-76.2741,2.0108],[-76.2848,2.0162],[-76.2874,2.0147],[-76.2903,2.0219],[-76.2945,2.0221],[-76.3046,2.0331],[-76.3192,2.0302],[-76.3217,2.0347],[-76.3453,2.0501],[-76.3493,2.0651],[-76.3784,2.0761],[-76.377,2.0848],[-76.3854,2.0936],[-76.3834,2.0961],[-76.3859,2.1004],[-76.381,2.1044],[-76.3828,2.1139],[-76.3954,2.1278],[-76.3952,2.1335],[-76.4015,2.1427],[-76.3999,2.1475],[-76.4066,2.1489],[-76.4088,2.1591],[-76.421,2.1656]]]},"properties":{"OBJECTID":2233,"DPTO_CCDGO":"41","MPIO_CCDGO":"668","MPIO_CDPMP":"41668","MPIO_TIPO":"MUNICIPIO","MPIO_NAREA":1390.85045984,"MPIO_NANO":2024,"DPTO_CNMBRE":"HUILA","MPIO_CNMBRE":"SAN AGUSTÍN","MPIO_CRSLCION":"Ordenanza 24 del 8 de Abril de 1926"}},{"type":"Feature","id":2234,"geometry":{"type":"Polygon","coordinates":[[[-75.5827,2.9942],[-75.5852,3.0028],[-75.5979,3.0173],[-75.6103,3.0244],[-75.6168,3.0209],[-75.621,3.0116],[-75.6271,3.0088],[-75.6268,3.0024],[-75.6355,2.9941],[-75.6473,2.9963],[-75.6608,2.9866],[-75.6845,2.9893],[-75.6932,2.9934],[-75.7027,2.97],[-75.7208,2.9616],[-75.7286,2.9536],[-75.744,2.9532],[-75.7495,2.9468],[-75.7615,2.9423],[-75.7671,2.9237],[-75.7628,2.9153],[-75.7675,2.9153],[-75.7555,2.9087],[-75.7505,2.9159],[-75.7466,2.9163],[-75.7347,2.9017],[-75.7284,2.901],[-75.7272,2.894],[-75.7179,2.8868],[-75.7126,2.8701],[-75.6944,2.8608],[-75.6936,2.8417],[-75.6867,2.8327],[-75.666,2.8243],[-75.6644,2.826],[-75.6559,2.8203],[-75.6399,2.8239],[-75.6322,2.8325],[-75.6302,2.8403],[-75.6186,2.85],[-75.6222,2.8533],[-75.6241,2.8674],[-75.6217,2.8782],[-75.5997,2.8899],[-75.5853,2.8924],[-75.561,2.8814],[-75.547,2.8804],[-75.5334,2.8951],[-75.5335,2.9005],[-75.5109,2.9424],[-75.4945,2.9575],[-75.4979,2.9684],[-75.5049,2.972],[-75.514,2.9693],[-75.5335,2.9785],[-75.5409,2.9772],[-75.5452,2.982],[-75.5547,2.9789],[-75.5603,2.9822],[-75.5726,2.9774],[-75.577,2.9788],[-75.5827,2.9942]]]},"properties":{"OBJECTID":2234,"DPTO_CCDGO":"41","MPIO_CCDGO":"676","MPIO_CDPMP":"41676","MPIO_TIPO":"MUNICIPIO","MPIO_NAREA":339.30521757000002,"MPIO_NANO":2024,"DPTO_CNMBRE":"HUILA","MPIO_CNMBRE":"SANTA MARÍA","MPIO_CRSLCION":"Ordenanza 6 del 26 de Noviembre de 1965"}},{"type":"Feature","id":2235,"geometry":{"type":"Polygon","coordinates":[[[-75.8209,1.9976],[-75.8357,1.9883],[-75.8354,1.983],[-75.8419,1.9743],[-75.8346,1.9628],[-75.8394,1.9609],[-75.8505,1.9634],[-75.8583,1.9555],[-75.8673,1.9517],[-75.8716,1.9437],[-75.8866,1.9377],[-75.8957,1.9119],[-75.9113,1.9055],[-75.9288,1.8926],[-75.9279,1.8841],[-75.9509,1.8568],[-75.9488,1.8509],[-75.9356,1.8453],[-75.9126,1.8593],[-75.9092,1.8542],[-75.8826,1.8516],[-75.8777,1.8476],[-75.8781,1.8439],[-75.8708,1.8346],[-75.8733,1.8219],[-75.8574,1.8029],[-75.8565,1.7873],[-75.849,1.7775],[-75.8442,1.7531],[-75.8383,1.7475],[-75.8373,1.7402],[-75.8303,1.7474],[-75.817,1.7535],[-75.7991,1.7501],[-75.7867,1.7631],[-75.7736,1.7622],[-75.7702,1.7667],[-75.761,1.7694],[-75.757,1.7763],[-75.7371,1.7825],[-75.7317,1.8001],[-75.7334,1.8083],[-75.7307,1.8233],[-75.7079,1.8397],[-75.702,1.8662],[-75.6918,1.8739],[-75.6881,1.8807],[-75.6966,1.8854],[-75.7008,1.896],[-75.706,1.8997],[-75.7072,1.9122],[-75.7227,1.9189],[-75.7241,1.9382],[-75.7363,1.9419],[-75.7501,1.9383],[-75.7547,1.9454],[-75.7655,1.9477],[-75.7742,1.9607],[-75.7757,1.9748],[-75.7815,1.9777],[-75.7802,1.9858],[-75.7877,1.9872],[-75.789,1.9916],[-75.7976,1.9887],[-75.8209,1.9976]]]},"properties":{"OBJECTID":2235,"DPTO_CCDGO":"41","MPIO_CCDGO":"770","MPIO_CDPMP":"41770","MPIO_TIPO":"MUNICIPIO","MPIO_NAREA":429.62347226000003,"MPIO_NANO":2024,"DPTO_CNMBRE":"HUILA","MPIO_CNMBRE":"SUAZA","MPIO_CRSLCION":"1842"}},{"type":"Feature","id":2236,"geometry":{"type":"Polygon","coordinates":[[[-75.8724,2.2197],[-75.8839,2.2165],[-75.8935,2.2019],[-75.9066,2.2],[-75.9134,2.2061],[-75.9399,2.1832],[-75.9715,2.1702],[-75.9772,2.1636],[-75.9774,2.1545],[-75.9731,2.144],[-76.0063,2.1147],[-75.9962,2.1149],[-75.9923,2.1117],[-75.9852,2.1135],[-75.982,2.11],[-75.9729,2.11],[-75.9704,2.1071],[-75.9717,2.0945],[-75.9675,2.0917],[-75.9795,2.0661],[-75.9701,2.0462],[-75.9629,2.0413],[-75.9587,2.0483],[-75.9519,2.0504],[-75.9423,2.0489],[-75.9346,2.0384],[-75.9191,2.0335],[-75.9093,2.0363],[-75.8993,2.0336],[-75.8944,2.0425],[-75.8874,2.0354],[-75.8819,2.0389],[-75.8841,2.043],[-75.8761,2.0446],[-75.8752,2.0489],[-75.8597,2.0424],[-75.8597,2.0484],[-75.8473,2.0588],[-75.8491,2.0691],[-75.8444,2.0695],[-75.8458,2.0754],[-75.84,2.0864],[-75.8324,2.0935],[-75.8188,2.0967],[-75.8174,2.1036],[-75.8119,2.1017],[-75.8002,2.1058],[-75.7999,2.1161],[-75.7948,2.1205],[-75.7764,2.1207],[-75.7673,2.1067],[-75.7481,2.1135],[-75.7433,2.1215],[-75.7405,2.1285],[-75.7427,2.1457],[-75.7335,2.1615],[-75.7419,2.1625],[-75.752,2.1696],[-75.7541,2.1768],[-75.7608,2.181],[-75.7646,2.1889],[-75.7813,2.1924],[-75.7872,2.2004],[-75.8041,2.2001],[-75.8182,2.1932],[-75.8257,2.1995],[-75.8291,2.1984],[-75.8328,2.2074],[-75.8412,2.2143],[-75.8531,2.2127],[-75.8583,2.2088],[-75.8572,2.2114],[-75.8724,2.2197]]]},"properties":{"OBJECTID":2236,"DPTO_CCDGO":"41","MPIO_CCDGO":"791","MPIO_CDPMP":"41791","MPIO_TIPO":"MUNICIPIO","MPIO_NAREA":362.79091684000002,"MPIO_NANO":2024,"DPTO_CNMBRE":"HUILA","MPIO_CNMBRE":"TARQUI","MPIO_CRSLCION":"1757"}},{"type":"Feature","id":2237,"geometry":{"type":"Polygon","coordinates":[[[-75.7201,2.6315],[-75.7235,2.638],[-75.7203,2.6551],[-75.7231,2.6635],[-75.7308,2.6663],[-75.7397,2.6553],[-75.7402,2.6472],[-75.7528,2.6368],[-75.7608,2.6204],[-75.7559,2.613],[-75.7383,2.6043],[-75.7356,2.5885],[-75.739,2.5861],[-75.7591,2.586],[-75.7686,2.5694],[-75.7659,2.5597],[-75.7686,2.5583],[-75.7662,2.5188],[-75.7759,2.5004],[-75.7766,2.4927],[-75.786,2.4873],[-75.7949,2.4757],[-75.7658,2.457],[-75.7627,2.4608],[-75.7448,2.4493],[-75.7468,2.4552],[-75.7443,2.4573],[-75.7359,2.4478],[-75.7273,2.4512],[-75.7242,2.4459],[-75.7187,2.4475],[-75.7142,2.4427],[-75.7118,2.4453],[-75.7162,2.4498],[-75.7149,2.4532],[-75.7094,2.45],[-75.709,2.4443],[-75.7055,2.4474],[-75.7079,2.4511],[-75.698,2.4537],[-75.6934,2.4616],[-75.6909,2.4615],[-75.6902,2.4568],[-75.6856,2.4617],[-75.6783,2.4554],[-75.6743,2.4605],[-75.6706,2.4569],[-75.6711,2.4526],[-75.6664,2.4512],[-75.6732,2.4424],[-75.6591,2.4463],[-75.6598,2.436],[-75.6571,2.4315],[-75.651,2.4327],[-75.641,2.4432],[-75.6375,2.4417],[-75.6361,2.4379],[-75.6447,2.4354],[-75.6453,2.4324],[-75.6448,2.4289],[-75.6385,2.4292],[-75.6367,2.4225],[-75.6319,2.4239],[-75.6323,2.4301],[-75.6222,2.4332],[-75.6149,2.4293],[-75.6123,2.4342],[-75.6086,2.4337],[-75.5937,2.4479],[-75.5994,2.4515],[-75.5923,2.4581],[-75.5892,2.4576],[-75.5899,2.4528],[-75.5832,2.453],[-75.5784,2.4472],[-75.572,2.4615],[-75.561,2.4645],[-75.5583,2.4691],[-75.5626,2.4807],[-75.5697,2.4861],[-75.5843,2.549],[-75.5897,2.542],[-75.5975,2.54],[-75.6036,2.5338],[-75.6156,2.539],[-75.6265,2.5364],[-75.6285,2.5392],[-75.639,2.5391],[-75.6419,2.5423],[-75.6404,2.5562],[-75.6415,2.5605],[-75.6453,2.5604],[-75.6454,2.5681],[-75.6506,2.5726],[-75.6532,2.5885],[-75.6488,2.6021],[-75.6495,2.6189],[-75.6455,2.6351],[-75.6512,2.635],[-75.6564,2.6451],[-75.7,2.6227],[-75.7039,2.6282],[-75.7201,2.6315]]]},"properties":{"OBJECTID":2237,"DPTO_CCDGO":"41","MPIO_CCDGO":"797","MPIO_CDPMP":"41797","MPIO_TIPO":"MUNICIPIO","MPIO_NAREA":366.95722576000003,"MPIO_NANO":2024,"DPTO_CNMBRE":"HUILA","MPIO_CNMBRE":"TESALIA","MPIO_CRSLCION":"1887"}},{"type":"Feature","id":2238,"geometry":{"type":"Polygon","coordinates":[[[-75.038,2.9434],[-75.0169,2.9355],[-75.0021,2.9359],[-74.997,2.9322],[-74.9922,2.9342],[-74.9812,2.9294],[-74.9707,2.9339],[-74.9725,2.9216],[-74.9694,2.9175],[-74.9756,2.9085],[-74.9709,2.8984],[-74.9446,2.8968],[-74.9371,2.9075],[-74.9271,2.9136],[-74.911,2.9316],[-74.9025,2.9517],[-74.9044,2.9582],[-74.9118,2.9573],[-74.9265,2.9741],[-74.941,2.9783],[-74.9365,3.0052],[-74.9399,3.0159],[-74.9344,3.0235],[-74.9365,3.0322],[-74.933,3.0356],[-74.9341,3.039],[-74.9426,3.0464],[-74.9567,3.048],[-74.9572,3.0523],[-74.9659,3.0512],[-74.9671,3.0557],[-74.9704,3.0537],[-74.9779,3.0555],[-74.9826,3.0662],[-74.9888,3.0696],[-75.0164,3.0737],[-75.021,3.0776],[-75.0271,3.0731],[-75.0337,3.0738],[-75.0364,3.0809],[-75.0615,3.098],[-75.0682,3.0926],[-75.0744,3.0761],[-75.0796,3.0775],[-75.0837,3.0709],[-75.0952,3.0801],[-75.1001,3.0685],[-75.1111,3.0757],[-75.1144,3.0918],[-75.1268,3.0956],[-75.1266,3.0997],[-75.1365,3.1034],[-75.1385,3.1084],[-75.1502,3.1136],[-75.1486,3.1176],[-75.153,3.1175],[-75.1539,3.1218],[-75.161,3.1238],[-75.1602,3.1329],[-75.1699,3.1367],[-75.1704,3.1403],[-75.1668,3.1421],[-75.1704,3.1441],[-75.1754,3.1402],[-75.1825,3.1552],[-75.1825,3.1619],[-75.1854,3.1562],[-75.1882,3.1626],[-75.191,3.1612],[-75.1962,3.166],[-75.2006,3.1648],[-75.2077,3.1687],[-75.2144,3.1656],[-75.2121,3.169],[-75.2185,3.1729],[-75.2202,3.1832],[-75.2316,3.1637],[-75.2316,3.1359],[-75.2285,3.1332],[-75.235,3.1317],[-75.2396,3.1359],[-75.2545,3.1327],[-75.2569,3.1368],[-75.266,3.1396],[-75.2666,3.1294],[-75.2562,3.1249],[-75.2616,3.1195],[-75.2594,3.1134],[-75.2617,3.0916],[-75.2504,3.0772],[-75.2378,3.0747],[-75.2348,3.0659],[-75.2323,3.0657],[-75.2368,3.0601],[-75.2378,3.052],[-75.2505,3.04],[-75.2485,3.0411],[-75.2432,3.0343],[-75.2399,3.0378],[-75.2283,3.0375],[-75.2226,3.0305],[-75.2201,3.0317],[-75.2082,3.0234],[-75.2049,3.0121],[-75.1951,3.0081],[-75.1928,3.0028],[-75.1771,2.993],[-75.1706,2.9968],[-75.1644,2.9951],[-75.1568,3.0016],[-75.1408,3.0],[-75.1398,3.0027],[-75.1336,3.0],[-75.1314,3.0023],[-75.1155,2.9981],[-75.1092,2.9674],[-75.1115,2.9617],[-75.1052,2.9558],[-75.0988,2.9413],[-75.0821,2.9419],[-75.0658,2.9527],[-75.0603,2.9465],[-75.0517,2.9442],[-75.0498,2.9488],[-75.044,2.951],[-75.038,2.9434]]]},"properties":{"OBJECTID":2238,"DPTO_CCDGO":"41","MPIO_CCDGO":"799","MPIO_CDPMP":"41799","MPIO_TIPO":"MUNICIPIO","MPIO_NAREA":530.12226768999994,"MPIO_NANO":2025,"DPTO_CNMBRE":"HUILA","MPIO_CNMBRE":"TELLO","MPIO_CRSLCION":"1836"}},{"type":"Feature","id":2239,"geometry":{"type":"Polygon","coordinates":[[[-75.9712,2.9451],[-75.9815,2.9561],[-75.9844,2.9656],[-75.9828,2.9723],[-75.9878,2.9821],[-75.9913,2.9825],[-76.029,2.9405],[-75.8952,2.8554],[-75.8792,2.8338],[-75.8691,2.8342],[-75.8545,2.8419],[-75.8456,2.843],[-75.8254,2.8382],[-75.8164,2.8295],[-75.8173,2.8254],[-75.814,2.8218],[-75.8056,2.8191],[-75.8073,2.8109],[-75.8048,2.808],[-75.8104,2.7867],[-75.6778,2.7983],[-75.6509,2.796],[-75.6465,2.7902],[-75.6398,2.79],[-75.6291,2.7675],[-75.6309,2.7613],[-75.6278,2.7546],[-75.6311,2.7526],[-75.6214,2.7434],[-75.6154,2.7224],[-75.6184,2.7118],[-75.6158,2.694],[-75.5943,2.6821],[-75.5595,2.6824],[-75.5576,2.695],[-75.5532,2.6948],[-75.5349,2.733],[-75.5225,2.746],[-75.5009,2.7597],[-75.495,2.7718],[-75.4908,2.7877],[-75.4946,2.8042],[-75.5007,2.8054],[-75.51,2.7994],[-75.5166,2.8012],[-75.5169,2.8072],[-75.5211,2.8087],[-75.5214,2.8177],[-75.5178,2.8232],[-75.5338,2.8174],[-75.5369,2.8234],[-75.5471,2.8309],[-75.5693,2.8201],[-75.576,2.8137],[-75.5792,2.8344],[-75.5866,2.844],[-75.6147,2.85],[-75.6245,2.8473],[-75.6329,2.8313],[-75.6462,2.8219],[-75.6559,2.8203],[-75.6644,2.826],[-75.666,2.8243],[-75.6867,2.8327],[-75.6936,2.8417],[-75.6922,2.8539],[-75.6948,2.8615],[-75.7126,2.8701],[-75.7179,2.8868],[-75.7272,2.894],[-75.7278,2.9003],[-75.7347,2.9017],[-75.7466,2.9163],[-75.7505,2.9159],[-75.7555,2.9087],[-75.7675,2.9153],[-75.7768,2.9136],[-75.7808,2.9117],[-75.787,2.8991],[-75.7911,2.8985],[-75.8012,2.8862],[-75.8209,2.8832],[-75.8317,2.8745],[-75.8401,2.8719],[-75.8574,2.8715],[-75.8766,2.8872],[-75.8807,2.8874],[-75.8844,2.8976],[-75.9015,2.8949],[-75.9074,2.9005],[-75.9086,2.9095],[-75.9274,2.9137],[-75.9274,2.9214],[-75.9444,2.9218],[-75.9495,2.9167],[-75.9534,2.9178],[-75.959,2.9368],[-75.9631,2.9361],[-75.9657,2.9447],[-75.9712,2.9451]]]},"properties":{"OBJECTID":2239,"DPTO_CCDGO":"41","MPIO_CCDGO":"801","MPIO_CDPMP":"41801","MPIO_TIPO":"MUNICIPIO","MPIO_NAREA":471.65620790000003,"MPIO_NANO":2024,"DPTO_CNMBRE":"HUILA","MPIO_CNMBRE":"TERUEL","MPIO_CRSLCION":"1937"}},{"type":"Feature","id":2240,"geometry":{"type":"Polygon","coordinates":[[[-75.8568,2.0464],[-75.8597,2.0424],[-75.8633,2.0426],[-75.8687,2.0303],[-75.8751,2.0279],[-75.8843,2.0158],[-75.8886,2.0152],[-75.89,2.0078],[-75.9131,2.0004],[-75.9126,1.9968],[-75.9184,1.994],[-75.9212,1.9883],[-75.9284,1.9876],[-75.9297,1.9919],[-75.9384,1.9971],[-75.9526,1.9867],[-75.9602,1.9891],[-75.9693,1.9797],[-75.9707,1.965],[-75.9871,1.9547],[-75.9878,1.9299],[-75.9967,1.9045],[-75.9904,1.8866],[-75.9864,1.8875],[-75.9805,1.8827],[-75.9784,1.8772],[-75.9814,1.8679],[-75.9683,1.8535],[-75.9509,1.8568],[-75.9279,1.8841],[-75.9288,1.8926],[-75.9045,1.9094],[-75.8966,1.9109],[-75.8866,1.9377],[-75.8716,1.9437],[-75.8673,1.9517],[-75.8583,1.9555],[-75.8505,1.9634],[-75.8394,1.9609],[-75.8346,1.9628],[-75.8419,1.9743],[-75.8354,1.983],[-75.8357,1.9883],[-75.8208,1.9975],[-75.8286,1.9994],[-75.8281,2.0157],[-75.8386,2.0321],[-75.8477,2.0327],[-75.8568,2.0464]]]},"properties":{"OBJECTID":2240,"DPTO_CCDGO":"41","MPIO_CCDGO":"807","MPIO_CDPMP":"41807","MPIO_TIPO":"MUNICIPIO","MPIO_NAREA":185.72162667999999,"MPIO_NANO":2024,"DPTO_CNMBRE":"HUILA","MPIO_CNMBRE":"TIMANÁ","MPIO_CRSLCION":"1538"}},{"type":"Feature","id":2241,"geometry":{"type":"Polygon","coordinates":[[[-75.1376,3.4323],[-75.1497,3.4349],[-75.1537,3.4273],[-75.1493,3.4214],[-75.1516,3.4187],[-75.1577,3.4145],[-75.1718,3.4122],[-75.175,3.3986],[-75.173,3.376],[-75.1889,3.367],[-75.2021,3.3448],[-75.2161,3.3531],[-75.2166,3.3463],[-75.2063,3.3391],[-75.2045,3.3305],[-75.2206,3.3289],[-75.2253,3.3178],[-75.2391,3.3103],[-75.2394,3.2914],[-75.2324,3.2793],[-75.2327,3.2632],[-75.2269,3.2569],[-75.2248,3.2489],[-75.224,3.2302],[-75.226,3.2246],[-75.2309,3.2239],[-75.2319,3.2132],[-75.2294,3.2015],[-75.2564,3.1882],[-75.2656,3.175],[-75.2671,3.1679],[-75.2736,3.1644],[-75.2756,3.1588],[-75.2675,3.1406],[-75.2569,3.1368],[-75.2546,3.1327],[-75.2396,3.1359],[-75.235,3.1317],[-75.2285,3.1332],[-75.2316,3.1359],[-75.2316,3.1637],[-75.2202,3.1832],[-75.2185,3.1729],[-75.2121,3.169],[-75.2144,3.1656],[-75.2077,3.1687],[-75.2006,3.1648],[-75.1962,3.166],[-75.191,3.1612],[-75.1882,3.1626],[-75.1854,3.1562],[-75.1829,3.1623],[-75.1757,3.1405],[-75.1686,3.1438],[-75.1667,3.1419],[-75.1704,3.1403],[-75.1698,3.1364],[-75.1629,3.1346],[-75.1342,3.2003],[-75.128,3.1971],[-75.1249,3.1992],[-75.1236,3.1934],[-75.1167,3.1948],[-75.1105,3.1892],[-75.1081,3.1927],[-75.1004,3.1912],[-75.0993,3.1865],[-75.0961,3.1881],[-75.0934,3.1836],[-75.0837,3.1909],[-75.0771,3.1897],[-75.0558,3.2026],[-75.0458,3.1983],[-75.0427,3.2006],[-75.0511,3.2213],[-75.0496,3.2304],[-75.0332,3.2497],[-75.0176,3.2765],[-75.0079,3.2804],[-75.0135,3.2877],[-75.0363,3.2869],[-75.046,3.2918],[-75.0587,3.2927],[-75.0615,3.2902],[-75.0706,3.2953],[-75.0711,3.3008],[-75.0648,3.3105],[-75.0579,3.3147],[-75.0599,3.3216],[-75.055,3.3322],[-75.0598,3.3521],[-75.0547,3.3603],[-75.0601,3.3651],[-75.055,3.368],[-75.0569,3.378],[-75.0428,3.3851],[-75.0325,3.3858],[-75.0349,3.3905],[-75.0277,3.3914],[-75.0302,3.4005],[-75.0427,3.4084],[-75.0422,3.4178],[-75.0345,3.4279],[-75.0593,3.4328],[-75.1215,3.4331],[-75.1317,3.4303],[-75.1376,3.4323]]]},"properties":{"OBJECTID":2241,"DPTO_CCDGO":"41","MPIO_CCDGO":"872","MPIO_CDPMP":"41872","MPIO_TIPO":"MUNICIPIO","MPIO_NAREA":543.62965785999995,"MPIO_NANO":2024,"DPTO_CNMBRE":"HUILA","MPIO_CNMBRE":"VILLAVIEJA","MPIO_CRSLCION":"1795"}},{"type":"Feature","id":2242,"geometry":{"type":"Polygon","coordinates":[[[-75.4504,2.7764],[-75.4638,2.7648],[-75.4867,2.7633],[-75.4983,2.7672],[-75.5009,2.7597],[-75.5225,2.746],[-75.5349,2.733],[-75.5532,2.6948],[-75.5576,2.695],[-75.5595,2.6824],[-75.5877,2.6837],[-75.5949,2.6612],[-75.5876,2.6452],[-75.5867,2.6277],[-75.5904,2.6248],[-75.5884,2.6102],[-75.5923,2.5995],[-75.5875,2.5834],[-75.5902,2.5753],[-75.5874,2.5718],[-75.588,2.5575],[-75.5677,2.4867],[-75.5578,2.4948],[-75.5543,2.5025],[-75.5464,2.4975],[-75.5428,2.499],[-75.5448,2.5181],[-75.5362,2.5316],[-75.5233,2.5369],[-75.5307,2.5452],[-75.5169,2.5432],[-75.5097,2.5542],[-75.4999,2.5496],[-75.4958,2.5528],[-75.4963,2.5599],[-75.5019,2.5649],[-75.4949,2.5692],[-75.4925,2.581],[-75.476,2.5774],[-75.4814,2.5998],[-75.4727,2.6077],[-75.4682,2.6067],[-75.4662,2.6315],[-75.4525,2.6332],[-75.4442,2.6384],[-75.4442,2.6473],[-75.4526,2.6471],[-75.4535,2.6498],[-75.4425,2.657],[-75.4422,2.6596],[-75.4456,2.6582],[-75.4475,2.6622],[-75.4437,2.6703],[-75.4457,2.6778],[-75.4356,2.6786],[-75.4423,2.6886],[-75.4306,2.7094],[-75.4372,2.7173],[-75.4263,2.7205],[-75.4243,2.7269],[-75.4194,2.7279],[-75.4232,2.7338],[-75.4283,2.7323],[-75.4315,2.7429],[-75.4356,2.745],[-75.432,2.7563],[-75.438,2.7714],[-75.4365,2.7747],[-75.4504,2.7764]]]},"properties":{"OBJECTID":2242,"DPTO_CCDGO":"41","MPIO_CCDGO":"885","MPIO_CDPMP":"41885","MPIO_TIPO":"MUNICIPIO","MPIO_NAREA":332.81672578000001,"MPIO_NANO":2024,"DPTO_CNMBRE":"HUILA","MPIO_CNMBRE":"YAGUARÁ","MPIO_CRSLCION":"1623"}},{"type":"Feature","id":2206,"geometry":{"type":"Polygon","coordinates":[[[-75.038,2.9434],[-75.044,2.951],[-75.0498,2.9488],[-75.0517,2.9442],[-75.0603,2.9465],[-75.0658,2.9527],[-75.0821,2.9419],[-75.0988,2.9413],[-75.1052,2.9558],[-75.1115,2.9617],[-75.1092,2.9674],[-75.1155,2.9981],[-75.1314,3.0023],[-75.1336,3.0],[-75.1398,3.0027],[-75.1408,3.0],[-75.1568,3.0016],[-75.1644,2.9951],[-75.1706,2.9968],[-75.1771,2.993],[-75.1928,3.0028],[-75.1951,3.0081],[-75.2049,3.0121],[-75.2082,3.0234],[-75.2201,3.0317],[-75.2226,3.0305],[-75.2283,3.0375],[-75.2399,3.0378],[-75.2432,3.0343],[-75.2485,3.0411],[-75.2505,3.04],[-75.2378,3.052],[-75.2368,3.0601],[-75.2323,3.0657],[-75.2348,3.0659],[-75.2378,3.0747],[-75.2504,3.0772],[-75.2617,3.0916],[-75.2594,3.1134],[-75.2617,3.1189],[-75.2564,3.1241],[-75.2578,3.1269],[-75.268,3.1298],[-75.2694,3.1131],[-75.267,3.1072],[-75.2718,3.1094],[-75.2785,3.1043],[-75.2832,3.0731],[-75.2922,3.0661],[-75.2967,3.0578],[-75.2995,3.0617],[-75.3051,3.0603],[-75.3074,3.063],[-75.308,3.0597],[-75.3125,3.0617],[-75.3155,3.0698],[-75.3388,3.0717],[-75.3415,3.077],[-75.3407,3.0908],[-75.3461,3.0891],[-75.3445,3.0981],[-75.3503,3.0966],[-75.3527,3.099],[-75.3611,3.0926],[-75.3655,3.0966],[-75.3642,3.1051],[-75.3704,3.1132],[-75.3752,3.1102],[-75.3971,3.1199],[-75.3978,3.1161],[-75.4084,3.1125],[-75.4035,3.1321],[-75.413,3.1371],[-75.3901,3.2029],[-75.3714,3.2349],[-75.3677,3.2337],[-75.3616,3.2448],[-75.3374,3.2717],[-75.3413,3.2785],[-75.355,3.284],[-75.359,3.2813],[-75.3653,3.2659],[-75.3693,3.2673],[-75.3718,3.2758],[-75.3789,3.2747],[-75.387,3.2678],[-75.3867,3.263],[-75.3923,3.2609],[-75.3906,3.2584],[-75.3985,3.2569],[-75.3996,3.2529],[-75.4056,3.2501],[-75.419,3.2513],[-75.4393,3.2423],[-75.4499,3.2499],[-75.4619,3.2409],[-75.473,3.2499],[-75.4782,3.2469],[-75.4863,3.2298],[-75.4984,3.2307],[-75.5032,3.2281],[-75.5177,3.2312],[-75.5189,3.2288],[-75.5263,3.2335],[-75.5303,3.2322],[-75.5342,3.225],[-75.5629,3.2017],[-75.573,3.165],[-75.5848,3.1501],[-75.5763,3.1448],[-75.5822,3.1372],[-75.5825,3.1238],[-75.5885,3.1178],[-75.6017,3.1139],[-75.6059,3.1008],[-75.622,3.0764],[-75.6178,3.0624],[-75.6049,3.0572],[-75.6,3.0485],[-75.5945,3.0755],[-75.5858,3.088],[-75.5693,3.1004],[-75.5578,3.1044],[-75.5495,3.0925],[-75.5518,3.0905],[-75.5393,3.0807],[-75.538,3.0721],[-75.5235,3.0687],[-75.5235,3.0624],[-75.5291,3.0555],[-75.5263,3.0506],[-75.5314,3.0377],[-75.5131,3.0385],[-75.5029,3.0343],[-75.4926,3.0362],[-75.4887,3.032],[-75.4912,3.0266],[-75.4765,3.0282],[-75.4632,3.0211],[-75.4581,3.0287],[-75.4536,3.03],[-75.4507,3.0396],[-75.4391,3.0483],[-75.4298,3.0951],[-75.425,3.0968],[-75.4232,3.0885],[-75.4138,3.0857],[-75.3984,3.0728],[-75.4009,3.0609],[-75.3984,3.0579],[-75.4032,3.052],[-75.3928,3.0529],[-75.3766,3.0428],[-75.3729,3.045],[-75.3599,3.0401],[-75.3551,3.0474],[-75.3453,3.0408],[-75.3389,3.0416],[-75.3326,3.0306],[-75.3358,3.0166],[-75.3292,3.0071],[-75.3161,2.97],[-75.3065,2.9672],[-75.3039,2.9715],[-75.3006,2.9712],[-75.3005,2.9621],[-75.3069,2.9536],[-75.3091,2.9392],[-75.3041,2.9345],[-75.3043,2.9248],[-75.297,2.9215],[-75.2969,2.9114],[-75.2923,2.9081],[-75.2966,2.901],[-75.293,2.8989],[-75.2937,2.891],[-75.29,2.8859],[-75.2902,2.8684],[-75.2796,2.8629],[-75.2513,2.8565],[-75.2388,2.8573],[-75.235,2.8608],[-75.2163,2.861],[-75.2082,2.8501],[-75.2086,2.8448],[-75.2012,2.8319],[-75.1929,2.825],[-75.1815,2.8221],[-75.1805,2.8159],[-75.1614,2.8093],[-75.1607,2.8004],[-75.1701,2.796],[-75.1713,2.7871],[-75.1646,2.7835],[-75.1582,2.7718],[-75.167,2.7653],[-75.1553,2.7565],[-75.1512,2.7603],[-75.1402,2.7569],[-75.1353,2.7496],[-75.1389,2.7363],[-75.145,2.7306],[-75.1453,2.7234],[-75.1217,2.7295],[-75.1144,2.7247],[-75.0963,2.7376],[-75.0879,2.7303],[-75.0747,2.7455],[-75.0703,2.7421],[-75.055,2.7644],[-75.0424,2.777],[-75.0411,2.7831],[-75.0265,2.7932],[-75.0255,2.7998],[-75.0211,2.8036],[-75.0203,2.815],[-75.0008,2.8377],[-74.989,2.858],[-74.9754,2.8628],[-74.9713,2.8701],[-74.9641,2.873],[-74.9626,2.878],[-74.9558,2.8797],[-74.9546,2.8859],[-74.9446,2.8968],[-74.9709,2.8984],[-74.9756,2.9085],[-74.9694,2.9175],[-74.9725,2.9216],[-74.9707,2.9339],[-74.9812,2.9294],[-74.9922,2.9342],[-74.997,2.9322],[-75.0021,2.9359],[-75.0169,2.9355],[-75.038,2.9434]]]},"properties":{"OBJECTID":2206,"DPTO_CCDGO":"41","MPIO_CCDGO":"001","MPIO_CDPMP":"41001","MPIO_TIPO":"MUNICIPIO","MPIO_NAREA":1269.2178537,"MPIO_NANO":2025,"DPTO_CNMBRE":"HUILA","MPIO_CNMBRE":"NEIVA","MPIO_CRSLCION":"1612"}}]}